{"type":"FeatureCollection","features":[{"type":"Feature","properties":{"key":"park","name":"Glacier National Park","osm":"relation/1242641"},"geometry":{"type":"Polygon","coordinates":[[[-114.4755007,49.0010949],[-114.4754831,49.0010698],[-114.4745199,48.999964],[-114.4737913,48.9993201],[-114.4729356,48.998815],[-114.4724864,48.9986486],[-114.471644,48.99853],[-114.4710334,48.9982065],[-114.4688815,48.9965616],[-114.4684093,48.9962609],[-114.4677354,48.9956153],[-114.4667489,48.9947992],[-114.4663741,48.9943246],[-114.4658019,48.9919933],[-114.4656654,48.9917995],[-114.4651237,48.9910869],[-114.4647651,48.9908457],[-114.4625467,48.9890228],[-114.461888,48.9887907],[-114.4598189,48.9883309],[-114.4587273,48.9881657],[-114.4568394,48.9877545],[-114.4532996,48.986974],[-114.4529116,48.9866771],[-114.4524848,48.9863322],[-114.452293,48.9861209],[-114.452149,48.9858696],[-114.4519982,48.9856396],[-114.4520147,48.985532],[-114.4519819,48.9853267],[-114.4525859,48.9845707],[-114.453069,48.9842413],[-114.4536227,48.9837478],[-114.4537535,48.983267],[-114.4537553,48.982898],[-114.4536324,48.9823079],[-114.4534426,48.9819356],[-114.4531598,48.9816022],[-114.4527809,48.9812626],[-114.4518501,48.9806516],[-114.4511047,48.9799541],[-114.4499091,48.9786762],[-114.4488494,48.9777811],[-114.4480464,48.9772383],[-114.4477556,48.976986],[-114.4472949,48.9764509],[-114.4471164,48.9758444],[-114.4466638,48.9752281],[-114.4439513,48.9731587],[-114.4435849,48.9728007],[-114.4428844,48.9723537],[-114.441696,48.9717684],[-114.4392968,48.9706703],[-114.4382591,48.9702873],[-114.437341,48.9698558],[-114.4365947,48.9693382],[-114.4361417,48.9685149],[-114.4358643,48.9672634],[-114.4357038,48.9669173],[-114.4354187,48.9665479],[-114.4340819,48.965193],[-114.4335787,48.9648301],[-114.4326876,48.9637949],[-114.4310194,48.9623869],[-114.4307188,48.9621889],[-114.4300563,48.9618937],[-114.4298053,48.9618202],[-114.4292152,48.9617837],[-114.4287707,48.961878],[-114.428178,48.9622015],[-114.4279101,48.9622815],[-114.4270689,48.9623695],[-114.4264664,48.9623514],[-114.4255231,48.9621455],[-114.4252423,48.9620369],[-114.4248054,48.9618429],[-114.424156,48.9613403],[-114.42392,48.9610864],[-114.4237771,48.9605958],[-114.4238659,48.9602962],[-114.4241499,48.9600538],[-114.4244518,48.9598739],[-114.4249199,48.959725],[-114.4254666,48.9597267],[-114.427586,48.9593488],[-114.4280094,48.9591472],[-114.428281,48.9589232],[-114.4284019,48.9586946],[-114.4284032,48.9585146],[-114.428342,48.9582195],[-114.428111,48.9578395],[-114.4273793,48.9571324],[-114.423992,48.9535619],[-114.4233532,48.953212],[-114.4227218,48.9529698],[-114.4218995,48.9527333],[-114.4211725,48.9526919],[-114.4182532,48.9531564],[-114.4165612,48.9531886],[-114.415597,48.9530732],[-114.4147945,48.9529261],[-114.4141067,48.9526585],[-114.4130858,48.9521129],[-114.4127686,48.9518703],[-114.41249,48.9515906],[-114.4121384,48.9510432],[-114.4120233,48.9507587],[-114.4118852,48.949737],[-114.4116732,48.9490324],[-114.4110139,48.9481791],[-114.409903,48.9471142],[-114.408541,48.9447701],[-114.4091428,48.9445813],[-114.4094175,48.9444022],[-114.4097263,48.9441231],[-114.410351,48.9432678],[-114.4104672,48.9427695],[-114.410381,48.9421062],[-114.4098226,48.9415288],[-114.4089431,48.941051],[-114.4085113,48.9409288],[-114.4075882,48.9408121],[-114.4071111,48.9408262],[-114.4063668,48.9409292],[-114.4047103,48.9412751],[-114.4036952,48.9414131],[-114.4029146,48.9413822],[-114.402445,48.941306],[-114.4015727,48.9411338],[-114.4001133,48.940763],[-114.3993731,48.9405239],[-114.3990504,48.9403985],[-114.3977753,48.9397252],[-114.3972008,48.9393103],[-114.396449,48.9382977],[-114.3957781,48.9376696],[-114.3949015,48.9370296],[-114.3947121,48.9368552],[-114.3945581,48.9365988],[-114.3944021,48.9342999],[-114.3931018,48.9320437],[-114.3928969,48.9318428],[-114.3927432,48.9313884],[-114.3924871,48.9303624],[-114.3919673,48.9296522],[-114.3915177,48.9292857],[-114.3910145,48.9290182],[-114.3882741,48.9279117],[-114.3871341,48.9275585],[-114.3866708,48.9273386],[-114.3861339,48.9270108],[-114.3856955,48.9265724],[-114.3853757,48.9262183],[-114.3856566,48.9253522],[-114.3858605,48.9247344],[-114.3860349,48.9244863],[-114.3867668,48.9234406],[-114.3875364,48.9227939],[-114.3878762,48.9224818],[-114.387972,48.9221343],[-114.3879353,48.9212865],[-114.3878139,48.9205108],[-114.3874673,48.9198282],[-114.3867588,48.9188412],[-114.3861304,48.9182298],[-114.3851295,48.9177644],[-114.3843086,48.9175365],[-114.382483,48.9173922],[-114.3814308,48.9173781],[-114.3794255,48.9175422],[-114.3772657,48.9174009],[-114.3761813,48.9171115],[-114.3756393,48.9169956],[-114.37527,48.916663],[-114.3746793,48.9161454],[-114.3745175,48.9154832],[-114.3749856,48.9147729],[-114.3760529,48.9144586],[-114.3775373,48.914307],[-114.3783105,48.9142211],[-114.381538,48.9134817],[-114.3823446,48.9131222],[-114.3833791,48.9127139],[-114.3840235,48.9122305],[-114.3844201,48.9118397],[-114.3845558,48.911376],[-114.3845413,48.9109249],[-114.3842912,48.9106176],[-114.3841165,48.9102538],[-114.3834418,48.9095627],[-114.3830328,48.9093678],[-114.3817267,48.9090282],[-114.3813504,48.908906],[-114.3808854,48.9089328],[-114.3794149,48.9090925],[-114.3784271,48.909287],[-114.3774392,48.909415],[-114.3763016,48.9093743],[-114.375593,48.9092575],[-114.3752927,48.9091629],[-114.3748218,48.9089934],[-114.3745495,48.9085939],[-114.3742674,48.9082623],[-114.3743189,48.9078157],[-114.3747428,48.907305],[-114.3749809,48.9069676],[-114.3753972,48.9064605],[-114.3767393,48.9059218],[-114.3782549,48.9044377],[-114.3780669,48.9036079],[-114.3782032,48.902619],[-114.3785296,48.9023105],[-114.3789594,48.901803],[-114.3798365,48.9010484],[-114.3807313,48.9005543],[-114.3811353,48.9002725],[-114.3816238,48.8998262],[-114.3818695,48.8994231],[-114.3819954,48.8988615],[-114.3819115,48.8982251],[-114.3817462,48.8977981],[-114.3815212,48.8974987],[-114.3809455,48.8970567],[-114.3805929,48.8968871],[-114.3797408,48.8965972],[-114.3794079,48.896517],[-114.3744147,48.8959345],[-114.3734287,48.8958824],[-114.3728706,48.8957008],[-114.3722459,48.8953412],[-114.3719099,48.8952161],[-114.3716624,48.8951873],[-114.3709127,48.8947953],[-114.3706748,48.8945054],[-114.3705886,48.894238],[-114.3705278,48.8939428],[-114.3705651,48.8934828],[-114.3704208,48.8928424],[-114.3706479,48.8915976],[-114.3707663,48.8907993],[-114.3710072,48.8902658],[-114.3712076,48.8898338],[-114.3709225,48.889319],[-114.3707632,48.888924],[-114.3698491,48.8881139],[-114.3687101,48.8874094],[-114.3663811,48.8862537],[-114.3661375,48.8860809],[-114.3657473,48.8855524],[-114.3655703,48.8851527],[-114.3656407,48.8845748],[-114.3659407,48.8839631],[-114.3662376,48.8837115],[-114.3667275,48.8834902],[-114.3673572,48.8833188],[-114.3688158,48.8830962],[-114.3700246,48.8830159],[-114.372754,48.883026],[-114.3740972,48.8829146],[-114.3748951,48.8828103],[-114.3759835,48.8825624],[-114.3763291,48.8824263],[-114.3772831,48.8818045],[-114.3778386,48.8811403],[-114.3779203,48.880733],[-114.3777354,48.8802166],[-114.3765106,48.8786418],[-114.3753443,48.8773263],[-114.3745637,48.8764788],[-114.3743491,48.8761613],[-114.3742204,48.8758155],[-114.3737805,48.8752934],[-114.3731984,48.8748337],[-114.3719459,48.8743266],[-114.3713451,48.8741855],[-114.3707764,48.8741291],[-114.3692851,48.8743125],[-114.3679285,48.8749699],[-114.3668187,48.8751014],[-114.3662279,48.8750376],[-114.3648339,48.8745925],[-114.3639811,48.8742845],[-114.3636647,48.8740418],[-114.3629038,48.8735238],[-114.3626197,48.8730358],[-114.361145,48.8706551],[-114.3604918,48.8692394],[-114.3605201,48.8686447],[-114.3605195,48.8681095],[-114.3607243,48.8674757],[-114.3609292,48.8669617],[-114.3611188,48.8667172],[-114.3613312,48.8659686],[-114.3615361,48.8655943],[-114.361864,48.8647151],[-114.3621582,48.8641071],[-114.3627499,48.8634832],[-114.3632885,48.8632087],[-114.3638803,48.8627895],[-114.3644417,48.8624901],[-114.3651449,48.862157],[-114.3652139,48.8619661],[-114.36554,48.8615426],[-114.366169,48.8609574],[-114.3667638,48.8605152],[-114.367708,48.8597034],[-114.367708,48.8589199],[-114.3674827,48.8582141],[-114.3671438,48.8578065],[-114.3667209,48.8574376],[-114.3659592,48.8568941],[-114.365648,48.8567105],[-114.3646395,48.8564282],[-114.3629551,48.8564211],[-114.3623328,48.8564493],[-114.3617213,48.856407],[-114.3600047,48.8566329],[-114.3585134,48.8571411],[-114.3571293,48.8578752],[-114.3559706,48.8581505],[-114.3547475,48.8580164],[-114.3537317,48.857694],[-114.3525052,48.8571905],[-114.350073,48.8565256],[-114.3490261,48.855979],[-114.3486543,48.8557394],[-114.3481764,48.8554824],[-114.3478539,48.8551654],[-114.3475391,48.8549108],[-114.3473293,48.8547309],[-114.3470536,48.8541346],[-114.3470005,48.8535207],[-114.3476074,48.853296],[-114.3481081,48.8534208],[-114.3485194,48.8535626],[-114.3492705,48.8537837],[-114.3497088,48.85392],[-114.3511351,48.8538751],[-114.352273,48.8534358],[-114.3531,48.8525273],[-114.3532365,48.8521779],[-114.3532972,48.8518783],[-114.3534034,48.8509997],[-114.3533798,48.8502891],[-114.3529312,48.8496911],[-114.3526064,48.8493273],[-114.3522584,48.8489507],[-114.3512878,48.8478768],[-114.3504757,48.847462],[-114.3493351,48.8471952],[-114.3483682,48.8467266],[-114.347649,48.8462838],[-114.3472855,48.8459785],[-114.3469878,48.84493],[-114.3467364,48.8439808],[-114.3468602,48.8427949],[-114.3470616,48.8417275],[-114.3472508,48.8405404],[-114.3469398,48.8398963],[-114.3463025,48.838653],[-114.3458549,48.8381886],[-114.3440342,48.8372349],[-114.3431769,48.8364309],[-114.3425166,48.8359256],[-114.341981,48.8356484],[-114.3412399,48.8352113],[-114.340092,48.8347664],[-114.3379784,48.8345263],[-114.3371093,48.8343568],[-114.3363154,48.8341944],[-114.3357391,48.8340207],[-114.3354946,48.8330609],[-114.3355697,48.8327148],[-114.3361545,48.8320828],[-114.3371072,48.8312277],[-114.3374112,48.8309478],[-114.3376995,48.830748],[-114.3379271,48.8297342],[-114.3379837,48.828622],[-114.3380696,48.8280535],[-114.3384451,48.8273542],[-114.3391264,48.8263866],[-114.3407196,48.8256661],[-114.3414331,48.8250763],[-114.341594,48.8233281],[-114.3413805,48.8221237],[-114.34102,48.8210217],[-114.3408054,48.8207533],[-114.3403119,48.8203047],[-114.3393671,48.8195096],[-114.3385037,48.8189457],[-114.3378209,48.8185811],[-114.3370091,48.8181615],[-114.3365312,48.8178867],[-114.3359395,48.817582],[-114.3347711,48.8172373],[-114.3338987,48.8172873],[-114.3331704,48.8173172],[-114.3322297,48.8173822],[-114.3316228,48.8173872],[-114.3309628,48.8174122],[-114.3303344,48.8172698],[-114.3297542,48.8169446],[-114.3295235,48.8167533],[-114.3291904,48.8162501],[-114.328831,48.8158036],[-114.3288234,48.8150493],[-114.3288445,48.8134977],[-114.3288006,48.8123666],[-114.3286337,48.8116072],[-114.3284668,48.8111326],[-114.328262,48.810643],[-114.3281178,48.8103482],[-114.3278144,48.8096787],[-114.327124,48.80805],[-114.3273061,48.8076153],[-114.325869,48.8062142],[-114.3250093,48.8057801],[-114.3241957,48.8056667],[-114.3223522,48.805202],[-114.3223259,48.8051647],[-114.3218671,48.805025],[-114.3206756,48.8042077],[-114.3199017,48.8038279],[-114.3184831,48.8027586],[-114.3186576,48.8015169],[-114.3189079,48.8006099],[-114.3191848,48.8001752],[-114.3195755,48.7993731],[-114.3198373,48.7989384],[-114.319989,48.798761],[-114.3199548,48.7985561],[-114.3192727,48.7979193],[-114.3178765,48.7971947],[-114.3169767,48.7966026],[-114.3161184,48.7963234],[-114.3148255,48.7965566],[-114.3107753,48.7974017],[-114.3102821,48.7974367],[-114.309569,48.7973667],[-114.3087915,48.797237],[-114.3083779,48.7971419],[-114.3063827,48.7964572],[-114.3051613,48.794943],[-114.3051006,48.7944632],[-114.3054117,48.7939434],[-114.3051082,48.7928239],[-114.3044709,48.7923841],[-114.3035909,48.7921542],[-114.302104,48.7922092],[-114.3011481,48.7924791],[-114.3000025,48.7929189],[-114.2989708,48.7930288],[-114.2983714,48.7928139],[-114.2979011,48.792699],[-114.2972259,48.7923141],[-114.2964066,48.7913495],[-114.2960728,48.7905399],[-114.295947,48.7903073],[-114.2957634,48.7902174],[-114.2956044,48.790078],[-114.295166,48.7898296],[-114.2936897,48.7899375],[-114.2927134,48.790298],[-114.2915118,48.7903687],[-114.2900956,48.7899658],[-114.2890334,48.7894215],[-114.287864,48.7884531],[-114.2867911,48.7877958],[-114.2862868,48.7873858],[-114.28545,48.7862336],[-114.2835295,48.7848834],[-114.2823815,48.7839432],[-114.2822421,48.7833494],[-114.2819191,48.7825776],[-114.2815451,48.7824803],[-114.2812745,48.782299],[-114.2804005,48.7814241],[-114.2799584,48.7806989],[-114.279841,48.7803603],[-114.2793583,48.7781785],[-114.2793115,48.77746],[-114.2791269,48.7769254],[-114.27911,48.776458],[-114.2788113,48.7750088],[-114.2787462,48.7742188],[-114.2788448,48.7734332],[-114.2788211,48.7724441],[-114.2788994,48.7719739],[-114.2791702,48.7705837],[-114.2791398,48.7697887],[-114.2789957,48.7690237],[-114.2782522,48.7675636],[-114.2778805,48.7668285],[-114.277706,48.7663985],[-114.2774463,48.7660902],[-114.2773068,48.7648067],[-114.277339,48.7638908],[-114.2770279,48.762876],[-114.2772318,48.7615103],[-114.2776491,48.7603301],[-114.2774139,48.7599075],[-114.276678,48.7593874],[-114.2759194,48.7591248],[-114.2752791,48.7589083],[-114.2742705,48.7588411],[-114.273659,48.7587386],[-114.2723769,48.7584627],[-114.2719799,48.7582753],[-114.2717171,48.7581232],[-114.2714006,48.7578262],[-114.2706925,48.7567369],[-114.2703009,48.7561923],[-114.2701238,48.755973],[-114.2698985,48.7557467],[-114.2695391,48.7553895],[-114.2687398,48.7549191],[-114.266991,48.7542578],[-114.2667818,48.7541517],[-114.2663795,48.7538475],[-114.2660469,48.7535964],[-114.2655319,48.7531684],[-114.2649686,48.752698],[-114.2642391,48.752019],[-114.2634022,48.7509155],[-114.2634854,48.7501833],[-114.2634076,48.7498508],[-114.2621952,48.7490833],[-114.261919,48.7484944],[-114.2619242,48.7471985],[-114.2618807,48.7463327],[-114.2625516,48.7449918],[-114.2633273,48.7434301],[-114.2634966,48.7425307],[-114.2637014,48.7415751],[-114.2638759,48.7403294],[-114.2638608,48.7398441],[-114.2638835,48.7390986],[-114.2642217,48.7387742],[-114.2643842,48.7379379],[-114.264498,48.7376077],[-114.2646022,48.7370898],[-114.2646146,48.7364119],[-114.2645448,48.7360227],[-114.2645683,48.7355161],[-114.2645966,48.7346056],[-114.2645435,48.7341753],[-114.2643918,48.7331395],[-114.2638987,48.7314532],[-114.262829,48.7314232],[-114.2621204,48.7315363],[-114.2605986,48.7321438],[-114.2600675,48.7328543],[-114.2597034,48.7332546],[-114.2588385,48.7334097],[-114.2581178,48.7332796],[-114.2568964,48.732494],[-114.2557964,48.7318035],[-114.2548481,48.7308627],[-114.253437,48.7288411],[-114.2533005,48.7276101],[-114.2533156,48.7270896],[-114.2533308,48.7262589],[-114.2528453,48.7248276],[-114.2524696,48.7243354],[-114.2518151,48.723663],[-114.2509675,48.7228172],[-114.2506725,48.72212],[-114.250474,48.7213096],[-114.2499084,48.7206731],[-114.2495314,48.7202489],[-114.248945,48.7195906],[-114.2485293,48.7190202],[-114.2475343,48.7179439],[-114.2459505,48.71683],[-114.2448165,48.7158472],[-114.2422235,48.714631],[-114.2413437,48.7146098],[-114.2407644,48.7148292],[-114.240346,48.7152398],[-114.2395735,48.7158415],[-114.2381573,48.7158486],[-114.2373848,48.7154522],[-114.236666,48.7146098],[-114.2358399,48.7142488],[-114.2343271,48.7138453],[-114.2335546,48.7134134],[-114.2317093,48.7129391],[-114.229703,48.713194],[-114.2287588,48.7136824],[-114.2274284,48.7137603],[-114.2255767,48.7133858],[-114.2243127,48.7128101],[-114.222894,48.7122345],[-114.221574,48.7120392],[-114.2207167,48.7120693],[-114.2190174,48.7123746],[-114.2179401,48.7134659],[-114.2175608,48.7142718],[-114.2170676,48.7147573],[-114.2160511,48.7146923],[-114.2150366,48.7141674],[-114.212914,48.7132775],[-114.212381,48.7130224],[-114.2102769,48.7117944],[-114.209581,48.7112436],[-114.2092463,48.7107704],[-114.2089219,48.7101586],[-114.2087133,48.7094445],[-114.2088591,48.7079993],[-114.2084495,48.7070081],[-114.2077152,48.7052972],[-114.2073418,48.7045299],[-114.2070763,48.7040743],[-114.2068791,48.7026824],[-114.206917,48.7017411],[-114.2068942,48.7008749],[-114.2067804,48.6999286],[-114.2068774,48.6986193],[-114.2069203,48.6979962],[-114.2077196,48.697065],[-114.2082667,48.6967888],[-114.2089963,48.6963852],[-114.2093396,48.695415],[-114.2092323,48.6946289],[-114.2083633,48.6939136],[-114.2076552,48.6937508],[-114.2065394,48.693595],[-114.2051876,48.6933612],[-114.204104,48.6929292],[-114.2026663,48.691704],[-114.2020762,48.691527],[-114.2004819,48.6911467],[-114.1986537,48.6910808],[-114.1979992,48.6911658],[-114.1963766,48.6909188],[-114.1961148,48.6908631],[-114.1946877,48.690855],[-114.194149,48.69089],[-114.1940826,48.6908813],[-114.1931173,48.6907548],[-114.1915545,48.690279],[-114.1906289,48.6892975],[-114.190351,48.6889085],[-114.1892513,48.6880662],[-114.1885579,48.6876174],[-114.1883755,48.6870862],[-114.1880107,48.6859884],[-114.1876567,48.6849967],[-114.1875064,48.6845292],[-114.1871631,48.6835163],[-114.1868842,48.6829355],[-114.1865838,48.681965],[-114.1869807,48.6806191],[-114.1877747,48.6801304],[-114.1887939,48.6799249],[-114.1898024,48.6802083],[-114.1908431,48.6810796],[-114.1910841,48.6812989],[-114.192169,48.6815919],[-114.193838,48.6811386],[-114.1945966,48.6805751],[-114.1952187,48.6790899],[-114.1952205,48.6783523],[-114.1948557,48.6779662],[-114.1944732,48.6776005],[-114.1939779,48.6770744],[-114.1911212,48.675516],[-114.1900557,48.6750735],[-114.1877082,48.6734743],[-114.1869799,48.6715105],[-114.1858571,48.6701979],[-114.1833544,48.6682635],[-114.1819811,48.6665488],[-114.1813859,48.6655125],[-114.1806203,48.6644939],[-114.1798328,48.663656],[-114.1794938,48.6631431],[-114.1776192,48.6615376],[-114.177289,48.6610163],[-114.1772444,48.6606628],[-114.1758618,48.6598747],[-114.1743565,48.6594844],[-114.1734735,48.6595465],[-114.1729206,48.6593421],[-114.172014,48.6587113],[-114.1715848,48.6579424],[-114.1716921,48.6570849],[-114.1718745,48.6564825],[-114.1726792,48.6559439],[-114.1733574,48.6554144],[-114.1731346,48.6547546],[-114.1722044,48.6536847],[-114.1705334,48.6520351],[-114.168334,48.6501284],[-114.167819,48.6492495],[-114.1680765,48.648087],[-114.1660059,48.6458187],[-114.1646111,48.6443159],[-114.1633451,48.6437488],[-114.1627872,48.6432738],[-114.1599226,48.6420899],[-114.1579693,48.6415672],[-114.1570687,48.6412321],[-114.1564518,48.6409344],[-114.1561031,48.6402644],[-114.1560656,48.6396583],[-114.1562768,48.6389706],[-114.1569346,48.6383325],[-114.1572619,48.6380277],[-114.1572354,48.6376529],[-114.1558849,48.6368099],[-114.1547633,48.6362682],[-114.1541987,48.6360927],[-114.1528406,48.6354709],[-114.1493919,48.6342464],[-114.1482322,48.6337581],[-114.1470695,48.6333872],[-114.1463292,48.6329476],[-114.1455728,48.6324371],[-114.1441045,48.631454],[-114.1435399,48.6308889],[-114.143191,48.6304878],[-114.1429634,48.6302572],[-114.1425385,48.6298761],[-114.1420139,48.6289858],[-114.1416621,48.6284059],[-114.1412115,48.6275408],[-114.1407824,48.6260729],[-114.1408146,48.6253779],[-114.1409218,48.6243638],[-114.1392289,48.6216882],[-114.1389923,48.6213716],[-114.1384277,48.620807],[-114.1381301,48.6203683],[-114.1379394,48.619735],[-114.1380615,48.6193269],[-114.138298,48.6191704],[-114.1386947,48.6190179],[-114.1392898,48.6189759],[-114.1398849,48.6188729],[-114.1409684,48.6185219],[-114.1419907,48.6183236],[-114.1425248,48.6183464],[-114.1439745,48.6185639],[-114.1456149,48.618972],[-114.1469348,48.6191895],[-114.1473087,48.6192124],[-114.1477131,48.619159],[-114.1481098,48.6190331],[-114.1487202,48.6186287],[-114.1493,48.618026],[-114.1499409,48.6169464],[-114.1503986,48.6157104],[-114.1506199,48.6153175],[-114.1509251,48.6149932],[-114.1511234,48.6146766],[-114.1526036,48.612937],[-114.1539235,48.6117659],[-114.1550145,48.6112547],[-114.1573797,48.6106215],[-114.1579901,48.6105528],[-114.1585089,48.6105185],[-114.1595695,48.6105795],[-114.1631402,48.610549],[-114.1638803,48.6106252],[-114.1642618,48.6106062],[-114.1659708,48.6107092],[-114.1676951,48.6104993],[-114.1689235,48.6101942],[-114.1701061,48.6098127],[-114.1709988,48.6092557],[-114.1711514,48.6090459],[-114.1715252,48.6082066],[-114.171571,48.607829],[-114.1715328,48.6073102],[-114.1714642,48.6071042],[-114.1708843,48.6062649],[-114.1702584,48.6056124],[-114.1689997,48.6049183],[-114.1675958,48.6044758],[-114.1670312,48.6043614],[-114.1665353,48.6041821],[-114.1659859,48.6040562],[-114.1631782,48.6038311],[-114.1627204,48.6036785],[-114.1613623,48.602702],[-114.1608587,48.6020916],[-114.1605154,48.6014011],[-114.1605611,48.6005085],[-114.1606755,48.6000049],[-114.1609349,48.5995128],[-114.1612554,48.5990741],[-114.1622091,48.5981624],[-114.1625524,48.5978877],[-114.1633306,48.5973994],[-114.1637884,48.5971629],[-114.1648413,48.5967814],[-114.1653449,48.5966746],[-114.1659705,48.5963961],[-114.1663749,48.5961291],[-114.1668937,48.5956294],[-114.1670539,48.5953394],[-114.1671683,48.5949618],[-114.1670691,48.5946947],[-114.1659323,48.5941378],[-114.1648184,48.5939432],[-114.1636815,48.5938364],[-114.1628422,48.5936724],[-114.1624608,48.5935389],[-114.1619648,48.5934817],[-114.1598743,48.5932757],[-114.1574785,48.5931574],[-114.156479,48.5932948],[-114.1538315,48.5931765],[-114.1524276,48.5926768],[-114.1521377,48.5924212],[-114.1519241,48.5921275],[-114.1517638,48.5917269],[-114.1517486,48.5914408],[-114.1518706,48.5908457],[-114.1520079,48.5905672],[-114.1525649,48.5898882],[-114.1529006,48.5895906],[-114.1533889,48.5893465],[-114.1540451,48.5889345],[-114.1549682,48.5887209],[-114.1555634,48.5884233],[-114.1562042,48.5878396],[-114.1570587,48.5866036],[-114.1575623,48.5860124],[-114.1576615,48.5857491],[-114.1577378,48.5854859],[-114.1577377,48.5845704],[-114.1577148,48.5840668],[-114.1575546,48.5831856],[-114.1573791,48.5828194],[-114.1570434,48.581118],[-114.1569213,48.5807899],[-114.1562498,48.5799927],[-114.155174,48.5793441],[-114.1540601,48.5788635],[-114.1534421,48.578688],[-114.1529309,48.5784706],[-114.1515575,48.5781005],[-114.1510997,48.5779251],[-114.1505427,48.577803],[-114.1491541,48.5775779],[-114.1480173,48.5775169],[-114.1450417,48.5775856],[-114.1430274,48.5777191],[-114.1405783,48.5772804],[-114.1398,48.5769714],[-114.1388616,48.576506],[-114.138213,48.5760139],[-114.1362903,48.5749534],[-114.1331336,48.5734924],[-114.1319585,48.5728623],[-114.1309022,48.5722252],[-114.1297677,48.5714192],[-114.1293253,48.5710623],[-114.1285721,48.570282],[-114.1281576,48.5697173],[-114.1280174,48.5694242],[-114.127836,48.5686823],[-114.1279025,48.5671238],[-114.1276862,48.565816],[-114.1273951,48.5648341],[-114.1273494,48.5627747],[-114.1268721,48.561411],[-114.1267077,48.5611635],[-114.126029,48.5604891],[-114.1260157,48.5591757],[-114.1263685,48.5583023],[-114.1263955,48.5578607],[-114.1263061,48.5570713],[-114.1261666,48.5567871],[-114.125375,48.5558188],[-114.1249991,48.5556581],[-114.1242928,48.5549754],[-114.1239158,48.5543558],[-114.1237599,48.5535862],[-114.123701,48.5528499],[-114.1238089,48.5521811],[-114.1241443,48.5516861],[-114.1245134,48.5508572],[-114.124991,48.5502504],[-114.1253258,48.5493055],[-114.1253757,48.5490162],[-114.1253464,48.5485401],[-114.12524,48.548354],[-114.1249393,48.5480922],[-114.1246447,48.5479293],[-114.1230691,48.5474322],[-114.1225107,48.5471684],[-114.1214432,48.5465585],[-114.1205792,48.545952],[-114.1203343,48.5457157],[-114.1193932,48.5445175],[-114.1189821,48.5437818],[-114.1186342,48.5420906],[-114.1183625,48.541639],[-114.1181491,48.5414739],[-114.1166265,48.5407323],[-114.1163808,48.5407029],[-114.1161671,48.5407537],[-114.1152413,48.5413457],[-114.1149719,48.541371],[-114.1146444,48.5413348],[-114.1143363,48.5411722],[-114.1141196,48.5409531],[-114.1137977,48.5405659],[-114.1136719,48.5402814],[-114.1134886,48.5395035],[-114.1135017,48.5386123],[-114.1137121,48.5380668],[-114.1139661,48.5377899],[-114.1146187,48.5373853],[-114.1161078,48.5369221],[-114.1175008,48.5366594],[-114.1178842,48.536505],[-114.1182114,48.5363162],[-114.1184551,48.5360937],[-114.1186315,48.535657],[-114.1186607,48.5348103],[-114.1185031,48.5342297],[-114.1181371,48.5340057],[-114.117482,48.5337085],[-114.1164292,48.5328912],[-114.1160527,48.5324965],[-114.1157154,48.5322987],[-114.1154904,48.5319448],[-114.1147927,48.5311719],[-114.1144932,48.5304871],[-114.1144022,48.5298867],[-114.1143975,48.5295899],[-114.1144836,48.5292276],[-114.1146678,48.5289167],[-114.1149628,48.5286478],[-114.1154139,48.5284916],[-114.117227,48.5282355],[-114.1184599,48.5277972],[-114.1187282,48.5277539],[-114.1192319,48.5277943],[-114.1197536,48.5279061],[-114.1200467,48.5278262],[-114.1222561,48.5265245],[-114.1233442,48.5254961],[-114.1233845,48.5252701],[-114.1233279,48.5250107],[-114.1230428,48.5245595],[-114.122536,48.5242493],[-114.1220295,48.5237232],[-114.1218322,48.5233776],[-114.1216329,48.5227801],[-114.1216789,48.5224279],[-114.1218906,48.5221253],[-114.1228793,48.5212436],[-114.1233622,48.5207266],[-114.1248438,48.5194896],[-114.1250576,48.5192228],[-114.1259662,48.5183613],[-114.1266099,48.517597],[-114.1270594,48.5171978],[-114.127732,48.5166846],[-114.1297608,48.5155407],[-114.1306922,48.5148315],[-114.1312426,48.5143126],[-114.1319655,48.5130781],[-114.1322544,48.5120535],[-114.1324921,48.5115161],[-114.132667,48.5112774],[-114.1332708,48.5107481],[-114.1338885,48.5104433],[-114.1341945,48.510354],[-114.1345043,48.5103275],[-114.1346125,48.5103246],[-114.1364568,48.5108052],[-114.1370465,48.5109241],[-114.1374949,48.5109479],[-114.1378127,48.5108312],[-114.1384237,48.5104186],[-114.1393893,48.5096094],[-114.1395545,48.509434],[-114.1396623,48.5092061],[-114.1397601,48.5081596],[-114.1395364,48.5076078],[-114.139286,48.5072817],[-114.1387023,48.5068207],[-114.1379727,48.5064087],[-114.1375972,48.506248],[-114.1367435,48.5060193],[-114.1363194,48.5059499],[-114.1359133,48.505952],[-114.1352981,48.5060767],[-114.1347971,48.5062973],[-114.1340518,48.5065066],[-114.1335643,48.5067269],[-114.1320459,48.5071371],[-114.1308071,48.5072518],[-114.1297386,48.5072719],[-114.1292064,48.5072054],[-114.1288138,48.5072071],[-114.1278429,48.5070535],[-114.1270355,48.5066976],[-114.1261824,48.5060369],[-114.1260488,48.5056266],[-114.1261049,48.5047792],[-114.1262426,48.5045955],[-114.127039,48.504115],[-114.1277156,48.5034487],[-114.1281521,48.502402],[-114.128336,48.5016502],[-114.1285074,48.499378],[-114.128339,48.4984018],[-114.1280854,48.4975808],[-114.127541,48.4964349],[-114.1269539,48.495695],[-114.1264932,48.4952486],[-114.125963,48.494993],[-114.1253807,48.49455],[-114.1248016,48.4937199],[-114.1248162,48.4928556],[-114.1252858,48.4919071],[-114.1256242,48.491466],[-114.1257209,48.4910584],[-114.1256108,48.4908095],[-114.1254506,48.4906249],[-114.1250079,48.49025],[-114.1243175,48.4898098],[-114.1234774,48.4893557],[-114.1226477,48.4890723],[-114.1223168,48.4889733],[-114.121429,48.4888444],[-114.120069,48.4889623],[-114.1143965,48.4898359],[-114.1121363,48.4898431],[-114.1112664,48.4897856],[-114.109214,48.4894272],[-114.1084286,48.4889805],[-114.1081299,48.4887457],[-114.1072707,48.487977],[-114.1063286,48.4869587],[-114.1057408,48.4864479],[-114.1050724,48.4864481],[-114.1048629,48.4861536],[-114.10314,48.4854523],[-114.0982552,48.4838669],[-114.0954404,48.4827439],[-114.0947902,48.4821399],[-114.0929627,48.4793748],[-114.0923271,48.4779113],[-114.090567,48.4729854],[-114.0901233,48.4724656],[-114.0896276,48.4720804],[-114.0894258,48.4719881],[-114.0912594,48.4719866],[-114.0912169,48.4718264],[-114.0900281,48.4707595],[-114.0884698,48.4699224],[-114.080967,48.4717815],[-114.0766062,48.4710708],[-114.0730887,48.4698218],[-114.0718277,48.4684203],[-114.0699856,48.4684209],[-114.0699298,48.4687529],[-114.0670202,48.4702148],[-114.0663345,48.4704314],[-114.0643765,48.4712364],[-114.0625163,48.4715801],[-114.0597344,48.4723475],[-114.0577313,48.4732994],[-114.0571813,48.4737491],[-114.0554463,48.4755971],[-114.0537327,48.4770771],[-114.0532032,48.4778516],[-114.0517181,48.4789657],[-114.0500918,48.479636],[-114.0486918,48.4797987],[-114.0474624,48.4797969],[-114.0460579,48.4804221],[-114.04296,48.4831937],[-114.0414636,48.4841167],[-114.037133,48.4858398],[-114.0338775,48.4860894],[-114.0313729,48.4865307],[-114.031172,48.4866243],[-114.0290295,48.4872061],[-114.0263138,48.4870804],[-114.023868,48.4865442],[-114.0220008,48.4882622],[-114.0225255,48.4901353],[-114.0171117,48.4933423],[-114.0115222,48.4960175],[-114.0055205,48.4975223],[-114.00573,48.4988382],[-114.0063233,48.5001396],[-114.0071263,48.501045],[-114.0063834,48.5054335],[-114.0060929,48.5065935],[-114.0061231,48.5073358],[-114.0048776,48.507812],[-114.0021831,48.5085552],[-113.9983809,48.5078633],[-113.9963753,48.5076837],[-113.9932353,48.5055912],[-113.9926817,48.5052971],[-113.9916601,48.5040554],[-113.9909561,48.5029344],[-113.9906134,48.5010635],[-113.9896207,48.4995767],[-113.98854,48.4985154],[-113.9868954,48.4982652],[-113.9838757,48.4981724],[-113.9821287,48.4995435],[-113.9804317,48.5001624],[-113.9797551,48.5002275],[-113.9783745,48.5003192],[-113.977018,48.5003379],[-113.9763304,48.5004461],[-113.9758381,48.5005029],[-113.9753244,48.5005348],[-113.9742809,48.5004635],[-113.9731541,48.5003779],[-113.971389,48.5001198],[-113.9702275,48.5000779],[-113.9694388,48.4999524],[-113.9687569,48.4997249],[-113.9675817,48.4996065],[-113.9660686,48.4993353],[-113.9650177,48.4990355],[-113.9630824,48.4992885],[-113.9616254,48.4992912],[-113.9586896,48.497841],[-113.9586896,48.4976753],[-113.9583907,48.4975893],[-113.9578483,48.4973423],[-113.9574104,48.4970296],[-113.956672,48.4966707],[-113.9556632,48.4960847],[-113.9545718,48.4957079],[-113.9533759,48.4953966],[-113.9529396,48.4953449],[-113.9522638,48.4953622],[-113.9519549,48.4954061],[-113.9513181,48.4956294],[-113.950478,48.4960829],[-113.9488264,48.49725],[-113.9476738,48.4979184],[-113.9474435,48.4981492],[-113.9472668,48.4986037],[-113.9472648,48.4988017],[-113.9473626,48.4990871],[-113.9475436,48.4994064],[-113.9474791,48.499696],[-113.9475759,48.4999635],[-113.9474771,48.500128],[-113.9474512,48.5003806],[-113.9470353,48.5011471],[-113.9467556,48.5014602],[-113.9466116,48.5015448],[-113.9447241,48.502385],[-113.9441251,48.5025623],[-113.9429884,48.5025734],[-113.9417368,48.5024704],[-113.9407946,48.5023326],[-113.9403277,48.5022185],[-113.9397468,48.5022424],[-113.9390527,48.5021791],[-113.9380111,48.5019628],[-113.9367736,48.5018684],[-113.9361917,48.5018743],[-113.9349411,48.5022571],[-113.9339131,48.5025083],[-113.932547,48.5027681],[-113.9323307,48.5027736],[-113.9308836,48.5025675],[-113.9301801,48.5023425],[-113.9295754,48.501953],[-113.9274891,48.5002875],[-113.925616,48.4990304],[-113.9253026,48.4987595],[-113.9247775,48.4985749],[-113.9239674,48.4986135],[-113.9234053,48.4987267],[-113.9224489,48.499048],[-113.9216876,48.4994632],[-113.9211477,48.4999628],[-113.9207269,48.5001805],[-113.9198424,48.5003379],[-113.9187697,48.5002841],[-113.918086,48.5001665],[-113.9175938,48.4998461],[-113.9174087,48.4996888],[-113.9173178,48.4995201],[-113.917121,48.4989223],[-113.9167693,48.4982204],[-113.9162909,48.496019],[-113.9159277,48.4955873],[-113.9154085,48.4952675],[-113.9146173,48.4949276],[-113.9116927,48.4942099],[-113.9102467,48.4935447],[-113.9099566,48.493444],[-113.9096291,48.4933983],[-113.9089277,48.493443],[-113.9071663,48.4934156],[-113.9060895,48.4935238],[-113.9051301,48.493791],[-113.9037421,48.4943749],[-113.9026719,48.4945999],[-113.9011261,48.4947918],[-113.9002198,48.4948057],[-113.899437,48.4946095],[-113.8980209,48.4944652],[-113.8974932,48.4944695],[-113.8968634,48.4945843],[-113.8963174,48.4947421],[-113.8951023,48.4947996],[-113.894003,48.4949893],[-113.8930211,48.4953379],[-113.8925883,48.4955827],[-113.8921575,48.4958635],[-113.8911606,48.4966624],[-113.8901868,48.4971548],[-113.8896287,48.4973397],[-113.8881046,48.497441],[-113.887357,48.4973878],[-113.8870389,48.4972698],[-113.8864259,48.4967273],[-113.8857872,48.4959695],[-113.8851026,48.4953568],[-113.8828445,48.4949276],[-113.881535,48.4947534],[-113.8811073,48.4946112],[-113.8808137,48.4944476],[-113.8800198,48.4935766],[-113.8792317,48.4930475],[-113.8780703,48.4926177],[-113.8777402,48.4925269],[-113.8773862,48.4924908],[-113.8765882,48.4925018],[-113.8754448,48.4926293],[-113.8743901,48.4928896],[-113.873112,48.4930296],[-113.872336,48.4931929],[-113.8714185,48.4934857],[-113.8707768,48.4936277],[-113.8693842,48.4941394],[-113.868794,48.4942351],[-113.8680921,48.4942706],[-113.867695,48.4941905],[-113.866919,48.493634],[-113.8652204,48.4932804],[-113.8627328,48.4928564],[-113.8621566,48.4929608],[-113.8612148,48.493785],[-113.8601493,48.4945763],[-113.8596332,48.4947871],[-113.8591421,48.4949613],[-113.8580743,48.4952308],[-113.8576808,48.4954565],[-113.8571051,48.4955698],[-113.8566334,48.4956085],[-113.8561777,48.4954488],[-113.8558136,48.4952329],[-113.85551,48.4948896],[-113.8551775,48.4947538],[-113.854019,48.4938918],[-113.8536843,48.4934772],[-113.8533738,48.493251],[-113.8527208,48.4929522],[-113.8523822,48.4927087],[-113.8521996,48.4918674],[-113.8522776,48.4915685],[-113.851807,48.4904195],[-113.851256,48.4895243],[-113.8510384,48.4887829],[-113.8508124,48.4883746],[-113.8501553,48.4875181],[-113.8492264,48.4868842],[-113.8483397,48.4865193],[-113.8471437,48.4864319],[-113.84691,48.4868516],[-113.8463845,48.4873775],[-113.8454179,48.4877613],[-113.8443106,48.4880497],[-113.843456,48.4880168],[-113.842665,48.4879104],[-113.8402093,48.4873232],[-113.8397532,48.4871545],[-113.8390217,48.4866597],[-113.8375517,48.4850583],[-113.8371967,48.4847611],[-113.8365449,48.4844803],[-113.8355242,48.4841365],[-113.8347557,48.4837056],[-113.8339803,48.4831488],[-113.8328154,48.4821607],[-113.8325906,48.4822563],[-113.8322683,48.4823002],[-113.832048,48.4822336],[-113.8306725,48.4813497],[-113.8298727,48.4809666],[-113.8278503,48.4798203],[-113.8270779,48.479436],[-113.8242466,48.4774652],[-113.8221173,48.4764897],[-113.8202889,48.4751305],[-113.8199744,48.4747871],[-113.8197728,48.4743052],[-113.8182276,48.4737841],[-113.8176411,48.4732306],[-113.8170576,48.4722677],[-113.8171283,48.4718783],[-113.816804,48.471527],[-113.8160506,48.4704253],[-113.8157085,48.4702569],[-113.8148205,48.4696875],[-113.8139138,48.468874],[-113.8133405,48.4679668],[-113.8131655,48.4674935],[-113.8126574,48.4668404],[-113.8126495,48.4664102],[-113.8121457,48.4657928],[-113.8119479,48.4653122],[-113.8111003,48.4649912],[-113.8103877,48.4642921],[-113.8097171,48.4632891],[-113.8098904,48.46255],[-113.8089672,48.4617111],[-113.8075749,48.4607315],[-113.8069453,48.4601811],[-113.8066036,48.460019],[-113.8066005,48.4598936],[-113.8063334,48.4597691],[-113.8053242,48.4594556],[-113.8043073,48.4582178],[-113.8037666,48.4578878],[-113.800033,48.4540906],[-113.8007918,48.4518517],[-113.8018913,48.451291],[-113.8018135,48.4496127],[-113.8003273,48.4478692],[-113.8003269,48.4465688],[-113.8023543,48.4457275],[-113.8034931,48.4425725],[-113.8013652,48.441479],[-113.8007815,48.4388922],[-113.799564,48.4381444],[-113.7975029,48.4375355],[-113.7972121,48.4372967],[-113.7956283,48.4348352],[-113.7966508,48.4324684],[-113.7945816,48.4284438],[-113.788834,48.4260426],[-113.7871873,48.4254467],[-113.7847811,48.4251634],[-113.7830489,48.4252642],[-113.7778014,48.4266082],[-113.7763471,48.4278252],[-113.763104,48.4236493],[-113.7614481,48.4227168],[-113.7580077,48.4189451],[-113.7565147,48.4179181],[-113.7556486,48.4178526],[-113.7517605,48.4201407],[-113.7505194,48.4204415],[-113.7496788,48.4204856],[-113.7414278,48.4198172],[-113.7381862,48.4198248],[-113.7368636,48.4200374],[-113.7352486,48.4204735],[-113.7336266,48.4205983],[-113.7306816,48.4201532],[-113.7273965,48.4184628],[-113.7243319,48.4162215],[-113.7232562,48.4165716],[-113.7217421,48.4159326],[-113.7205018,48.4138564],[-113.7205007,48.412936],[-113.7198144,48.4122854],[-113.7167336,48.4106226],[-113.7138738,48.408557],[-113.7122972,48.4051284],[-113.7091132,48.4034205],[-113.7064985,48.4026479],[-113.7055095,48.4004833],[-113.7061415,48.3981729],[-113.7041517,48.3967076],[-113.7021617,48.3948257],[-113.7020522,48.3940025],[-113.7025108,48.3930329],[-113.7025229,48.3922154],[-113.7015806,48.3919351],[-113.7005249,48.3924804],[-113.6989339,48.3928005],[-113.6985383,48.3928184],[-113.6971579,48.3922876],[-113.6965718,48.3913737],[-113.6954687,48.3905123],[-113.6912241,48.3922624],[-113.6900349,48.3915761],[-113.6882012,48.3897397],[-113.6840177,48.3897924],[-113.6822229,48.3890589],[-113.6821452,48.3885425],[-113.6833303,48.3868075],[-113.6847059,48.3853788],[-113.6845086,48.3845171],[-113.6808497,48.3824168],[-113.6801193,48.3811449],[-113.679447,48.3775503],[-113.6805053,48.3760893],[-113.6807636,48.3749337],[-113.6796553,48.3742754],[-113.6787948,48.3742754],[-113.6773144,48.3748476],[-113.6767725,48.375712],[-113.6765502,48.3776541],[-113.6760779,48.3786044],[-113.674931,48.3794014],[-113.6737951,48.3794763],[-113.6722091,48.3791375],[-113.6712033,48.378529],[-113.6703284,48.3774625],[-113.6698228,48.3762901],[-113.6703311,48.3748984],[-113.6702783,48.3730595],[-113.6711003,48.3710738],[-113.6710086,48.370343],[-113.6704338,48.3698654],[-113.6692199,48.3697043],[-113.6651342,48.3708208],[-113.662473,48.3708347],[-113.6608536,48.3706764],[-113.6591951,48.3695374],[-113.6592479,48.3673982],[-113.6587616,48.3650531],[-113.6575617,48.3644893],[-113.6545089,48.3646643],[-113.6512534,48.3647504],[-113.6502112,48.364478],[-113.6429641,48.3599502],[-113.6410087,48.3588642],[-113.6405643,48.358531],[-113.640581,48.3579307],[-113.6414287,48.3573053],[-113.6434429,48.3570414],[-113.6452565,48.3566387],[-113.6451036,48.3558659],[-113.6441615,48.3552823],[-113.6411043,48.3547908],[-113.6404459,48.3542491],[-113.6404182,48.3535576],[-113.6409846,48.3530327],[-113.6422013,48.3524216],[-113.64301,48.3513546],[-113.6423765,48.3503462],[-113.6417097,48.3488208],[-113.6422483,48.3482434],[-113.6422177,48.3478017],[-113.6411231,48.3450071],[-113.640226,48.3444877],[-113.6387538,48.3434795],[-113.6381092,48.3416986],[-113.6381537,48.3400287],[-113.6398507,48.337976],[-113.640709,48.3367733],[-113.6409451,48.3355536],[-113.6405507,48.3336566],[-113.6389087,48.3319063],[-113.6356838,48.3292704],[-113.6350478,48.3284483],[-113.6343617,48.3269486],[-113.6340728,48.3250767],[-113.6333868,48.3244323],[-113.6325008,48.3243795],[-113.6317209,48.3246571],[-113.6312348,48.3251376],[-113.6310876,48.3261819],[-113.6304345,48.3265766],[-113.6281338,48.3268628],[-113.6264459,48.3261798],[-113.6260037,48.3255791],[-113.6260389,48.3246381],[-113.6274226,48.3235545],[-113.6300198,48.3231966],[-113.6306455,48.3228671],[-113.6303869,48.3222882],[-113.6284648,48.3217583],[-113.6269857,48.3216843],[-113.626265,48.3209942],[-113.626376,48.320341],[-113.6272635,48.3196755],[-113.6275595,48.3187385],[-113.6264321,48.3177032],[-113.6245475,48.3166312],[-113.6216088,48.3161855],[-113.6199203,48.3157484],[-113.6188093,48.3147568],[-113.617455,48.3126126],[-113.6166684,48.3117719],[-113.6139121,48.3094342],[-113.613449,48.3086764],[-113.6112355,48.3076851],[-113.6099504,48.3066867],[-113.6091168,48.3053953],[-113.6091096,48.3044509],[-113.6097088,48.303619],[-113.6102608,48.3032214],[-113.6116617,48.3027994],[-113.6125479,48.3022426],[-113.6131954,48.3019475],[-113.6131663,48.3011543],[-113.6125493,48.3007396],[-113.6116836,48.3003515],[-113.6081129,48.2997236],[-113.6072312,48.2992406],[-113.6060739,48.298327],[-113.6054848,48.2976779],[-113.6055279,48.2971362],[-113.6045338,48.2942703],[-113.6031091,48.2940551],[-113.6010024,48.2943808],[-113.5997727,48.2941021],[-113.5985026,48.293551],[-113.5969981,48.2911358],[-113.5950262,48.2895332],[-113.594323,48.2886575],[-113.5936742,48.2864974],[-113.5938934,48.2860125],[-113.5943697,48.2853623],[-113.5958379,48.2838609],[-113.5973754,48.2828792],[-113.5977838,48.2825651],[-113.5986674,48.2821473],[-113.6001311,48.2826133],[-113.600793,48.2827071],[-113.60132,48.2826242],[-113.6033269,48.2820868],[-113.6047436,48.2813317],[-113.6052406,48.2809493],[-113.6063487,48.2799452],[-113.6066643,48.279253],[-113.6052843,48.2781079],[-113.6048576,48.2774221],[-113.6044476,48.2763702],[-113.6041774,48.2759354],[-113.6045818,48.2744574],[-113.6046634,48.2738264],[-113.6050221,48.272288],[-113.6045881,48.2710904],[-113.605043,48.2696746],[-113.6049532,48.2693177],[-113.6046375,48.2687399],[-113.6042433,48.2682243],[-113.6037369,48.2677997],[-113.6030812,48.2672695],[-113.6015922,48.2662159],[-113.6001108,48.2657237],[-113.5978266,48.2654008],[-113.5975885,48.265281],[-113.597273,48.2652285],[-113.5965681,48.2649232],[-113.5957445,48.2648115],[-113.594358,48.2642781],[-113.5937617,48.2642781],[-113.5912679,48.2649502],[-113.5898951,48.2651752],[-113.5884265,48.2654947],[-113.5868322,48.26557],[-113.5859235,48.2652478],[-113.584917,48.2641546],[-113.5838143,48.2631044],[-113.5839133,48.2624753],[-113.5835972,48.2615969],[-113.5828941,48.2608462],[-113.5816819,48.2609318],[-113.5806615,48.2602331],[-113.5802036,48.2602011],[-113.5791652,48.2611742],[-113.5785424,48.2611671],[-113.5778381,48.2608],[-113.5774201,48.2602525],[-113.5765976,48.2585897],[-113.5768804,48.2582193],[-113.5768664,48.2571535],[-113.5766562,48.2566111],[-113.5746337,48.2560943],[-113.5734217,48.2560098],[-113.5724113,48.2555886],[-113.5714019,48.2547862],[-113.5713551,48.2546418],[-113.5717187,48.2536149],[-113.5720533,48.2528855],[-113.571615,48.2521073],[-113.5719129,48.2502647],[-113.5724728,48.249433],[-113.5727845,48.2492832],[-113.5739911,48.2476139],[-113.5741937,48.246997],[-113.5746667,48.2459427],[-113.5746841,48.2456991],[-113.5743309,48.2449878],[-113.5738772,48.2447385],[-113.5730035,48.2446495],[-113.5717079,48.2453205],[-113.5718215,48.2456504],[-113.5711761,48.2458404],[-113.5703794,48.2456683],[-113.569518,48.2453709],[-113.5679189,48.2445266],[-113.567699,48.2438405],[-113.5689608,48.241704],[-113.5695177,48.2410446],[-113.5704165,48.2407158],[-113.5657905,48.2365057],[-113.5628474,48.2353502],[-113.5600937,48.2351203],[-113.5568781,48.2346256],[-113.5551182,48.2342239],[-113.5528645,48.2338758],[-113.5507499,48.2336985],[-113.5485401,48.2339181],[-113.5473504,48.2342734],[-113.5457443,48.2344789],[-113.5444916,48.2344543],[-113.5409568,48.2350557],[-113.5397186,48.2355368],[-113.538481,48.2359169],[-113.5344786,48.2368494],[-113.5333886,48.2372597],[-113.5323354,48.2378426],[-113.5302944,48.2385302],[-113.5250422,48.2394004],[-113.5217994,48.2394525],[-113.5205666,48.23929],[-113.5182221,48.2397187],[-113.5171341,48.2403675],[-113.5154143,48.2409308],[-113.5140119,48.2411036],[-113.5121882,48.2415658],[-113.510038,48.2424324],[-113.5052082,48.242906],[-113.5016599,48.2422884],[-113.4998389,48.2422677],[-113.4985779,48.2424573],[-113.4971985,48.2425132],[-113.4958424,48.2424221],[-113.4946357,48.2425386],[-113.4935142,48.242844],[-113.4922742,48.243038],[-113.4910041,48.2431004],[-113.488761,48.2438695],[-113.4876102,48.2447911],[-113.48588,48.2456277],[-113.4835867,48.2462356],[-113.4823066,48.2466543],[-113.4800733,48.2476564],[-113.4772383,48.2484828],[-113.4755845,48.2487348],[-113.473464,48.2506124],[-113.4735446,48.2515967],[-113.4728723,48.2531771],[-113.4721637,48.2538574],[-113.4715657,48.254573],[-113.4709336,48.2555443],[-113.4701488,48.2564863],[-113.4692499,48.2573532],[-113.4678129,48.2593843],[-113.4674801,48.2601664],[-113.463481,48.2617802],[-113.4623754,48.2616242],[-113.4606244,48.2618016],[-113.459553,48.2625777],[-113.4586865,48.2638499],[-113.4576466,48.2648511],[-113.4567179,48.2654702],[-113.4548169,48.2670583],[-113.45466,48.2686613],[-113.4552103,48.2694574],[-113.4542805,48.2721335],[-113.4490754,48.2749735],[-113.4487705,48.2775022],[-113.4533448,48.2809288],[-113.453469,48.2838234],[-113.4496485,48.2845212],[-113.4373537,48.2814148],[-113.4353449,48.2809673],[-113.4344943,48.280664],[-113.4309044,48.2807093],[-113.4294783,48.2812708],[-113.4283781,48.2829355],[-113.4286549,48.283407],[-113.4276794,48.2854736],[-113.4269124,48.285951],[-113.425184,48.2885992],[-113.4251866,48.2892195],[-113.4239791,48.2908124],[-113.4230814,48.2912557],[-113.421941,48.2928925],[-113.422081,48.2942294],[-113.4207659,48.2961371],[-113.4182443,48.2974026],[-113.4150186,48.2977218],[-113.4094111,48.2963728],[-113.4061099,48.2958368],[-113.4044856,48.2955093],[-113.4021529,48.2952039],[-113.3968013,48.2948687],[-113.3923224,48.2959222],[-113.3916234,48.2963792],[-113.3902129,48.2969955],[-113.3873142,48.2977803],[-113.3858815,48.2989095],[-113.385675,48.299544],[-113.3843011,48.3008979],[-113.3816104,48.302121],[-113.3775323,48.3023368],[-113.3765491,48.3020316],[-113.3753173,48.3018709],[-113.3740423,48.3020036],[-113.3732564,48.3021431],[-113.3716097,48.3023472],[-113.3695292,48.3027747],[-113.3686491,48.3030519],[-113.366676,48.3035093],[-113.3650937,48.3047839],[-113.364808,48.3068568],[-113.3649206,48.3085353],[-113.3651796,48.3096304],[-113.3636102,48.3131155],[-113.3567235,48.3181207],[-113.3567199,48.3178297],[-113.353723,48.3199755],[-113.351771,48.3214991],[-113.3487199,48.3234191],[-113.3479794,48.3237591],[-113.3460087,48.3248115],[-113.3436091,48.3263582],[-113.3424865,48.3272565],[-113.3417129,48.3279817],[-113.3402514,48.3295939],[-113.3395294,48.3305148],[-113.3388049,48.3312383],[-113.3377152,48.3320892],[-113.3365656,48.3326319],[-113.3358899,48.3330221],[-113.3342385,48.3338446],[-113.3324159,48.3349056],[-113.3307063,48.3361142],[-113.3291338,48.3374005],[-113.3280018,48.3381869],[-113.325913,48.3398963],[-113.3240781,48.3418659],[-113.3222032,48.3434552],[-113.3199694,48.3449274],[-113.3181102,48.3464646],[-113.3169778,48.3471269],[-113.3159898,48.3474721],[-113.3155688,48.3475654],[-113.3138168,48.3476417],[-113.3128128,48.3477733],[-113.3119201,48.3479998],[-113.3080521,48.350038],[-113.3072652,48.350371],[-113.3062105,48.3511028],[-113.3056359,48.3516866],[-113.3045338,48.3531078],[-113.3041216,48.3534973],[-113.3015384,48.3553809],[-113.2997191,48.3569108],[-113.2968514,48.359081],[-113.2938794,48.3606153],[-113.2921438,48.3613879],[-113.2908428,48.3617784],[-113.2891984,48.3623804],[-113.2886389,48.3626759],[-113.2881378,48.3630324],[-113.2862872,48.3647085],[-113.281883,48.3683717],[-113.2807965,48.3695097],[-113.280418,48.3700785],[-113.2801133,48.3707],[-113.2800636,48.3709784],[-113.2801127,48.3721084],[-113.2812027,48.374462],[-113.2827481,48.3774246],[-113.2835228,48.379071],[-113.2838441,48.3799199],[-113.2840158,48.3812041],[-113.2839565,48.3816918],[-113.2838409,48.3823101],[-113.2836496,48.3828515],[-113.283378,48.3833621],[-113.2830267,48.3839112],[-113.2825466,48.384497],[-113.2821711,48.3848909],[-113.2810259,48.3858438],[-113.2773719,48.388162],[-113.2766552,48.3885667],[-113.2757881,48.3889405],[-113.2748436,48.3891297],[-113.2744322,48.3891321],[-113.2637409,48.388683],[-113.2633229,48.3888198],[-113.2618885,48.3895604],[-113.2603815,48.3904294],[-113.2592209,48.3912836],[-113.2585475,48.3921117],[-113.2564445,48.3959683],[-113.254332,48.3996588],[-113.2542422,48.399895],[-113.2542535,48.4003119],[-113.2540544,48.4014549],[-113.2540594,48.4015425],[-113.2544053,48.4019212],[-113.2548425,48.4022504],[-113.2552604,48.4023386],[-113.2568897,48.402542],[-113.2583292,48.4028337],[-113.25886,48.4030227],[-113.2596756,48.4035868],[-113.2598545,48.4037731],[-113.2601318,48.404382],[-113.2601901,48.4047562],[-113.2601583,48.4052129],[-113.2599549,48.4056999],[-113.2596997,48.4060073],[-113.2594078,48.4063241],[-113.2587945,48.4067474],[-113.2570841,48.4075601],[-113.2560292,48.4078384],[-113.2527569,48.4085642],[-113.2506426,48.4094338],[-113.2455309,48.4110309],[-113.2440499,48.4115368],[-113.2431193,48.4119488],[-113.2416165,48.4128448],[-113.2419766,48.4129427],[-113.2439488,48.4159903],[-113.2509121,48.4264441],[-113.252706,48.4291037],[-113.257179,48.435773],[-113.2616242,48.4423977],[-113.2660407,48.4489598],[-113.2705173,48.4556285],[-113.2749915,48.4622071],[-113.2794712,48.4688934],[-113.2839605,48.4754624],[-113.2884505,48.4820221],[-113.2974087,48.4951776],[-113.3006218,48.5000709],[-113.3066419,48.5092175],[-113.3074707,48.5105885],[-113.3142571,48.5218137],[-113.3153099,48.523565],[-113.3161663,48.5249894],[-113.3197809,48.5310014],[-113.3204641,48.5321377],[-113.3217697,48.534309],[-113.3223491,48.5352725],[-113.3304988,48.5487116],[-113.3386234,48.5621056],[-113.3465994,48.5754076],[-113.3548055,48.5889067],[-113.3632341,48.6027066],[-113.3714111,48.6162592],[-113.3766801,48.6250127],[-113.3794799,48.6297234],[-113.3875705,48.6429706],[-113.3957011,48.6564054],[-113.4008069,48.6646934],[-113.4137886,48.6828256],[-113.421185,48.693134],[-113.4214059,48.6934892],[-113.4208066,48.6937447],[-113.4205256,48.6941195],[-113.4205512,48.6943709],[-113.4204196,48.6947425],[-113.420036,48.6952454],[-113.4199857,48.6956154],[-113.4198166,48.6957719],[-113.4196493,48.6962523],[-113.4200612,48.6966215],[-113.4200821,48.696774],[-113.4194784,48.6975064],[-113.4194663,48.6983884],[-113.4195651,48.6987462],[-113.4198317,48.6989206],[-113.4204373,48.6990788],[-113.4205515,48.6991933],[-113.420569,48.6998408],[-113.4203961,48.7002043],[-113.4205858,48.7007581],[-113.4206378,48.700991],[-113.4205781,48.7011632],[-113.4198155,48.701701],[-113.4196349,48.7019027],[-113.4196536,48.7020103],[-113.4199207,48.7021936],[-113.4200677,48.7024245],[-113.4198896,48.7026801],[-113.4188068,48.7033417],[-113.4188141,48.7034945],[-113.4192723,48.7039797],[-113.419481,48.7043622],[-113.4193391,48.704806],[-113.4189389,48.7052463],[-113.4189628,48.7054617],[-113.4193471,48.7058225],[-113.4194775,48.7059907],[-113.419456,48.7061082],[-113.4191251,48.7062951],[-113.4185748,48.7070084],[-113.4185911,48.7073499],[-113.4189554,48.7075762],[-113.4196741,48.707822],[-113.4197862,48.7078916],[-113.4198367,48.7083764],[-113.4199244,48.7087884],[-113.4198852,48.7091042],[-113.4195965,48.7096051],[-113.4195187,48.7099666],[-113.41919,48.7101984],[-113.4190772,48.7103987],[-113.4190973,48.7105333],[-113.4192868,48.7107992],[-113.4194228,48.7110932],[-113.419509,48.7111904],[-113.4199548,48.711415],[-113.4201941,48.7118688],[-113.4201569,48.7125084],[-113.4202526,48.7128033],[-113.4202011,48.7131462],[-113.4202336,48.7135414],[-113.4205486,48.7141556],[-113.4206933,48.7146204],[-113.4205327,48.7149567],[-113.4193062,48.7157472],[-113.41916,48.7161012],[-113.4194929,48.7168049],[-113.4195211,48.7171102],[-113.4191085,48.7175778],[-113.4190869,48.7176952],[-113.4196221,48.7180798],[-113.419784,48.7183373],[-113.4198752,48.7188212],[-113.4200979,48.7192124],[-113.420016,48.7203388],[-113.4201126,48.7212185],[-113.4201215,48.7216861],[-113.4202138,48.7219091],[-113.4206075,48.7221798],[-113.4211242,48.7227447],[-113.4213704,48.7233423],[-113.4214125,48.7239353],[-113.421538,48.7242835],[-113.422362,48.7253008],[-113.4225844,48.725683],[-113.4226687,48.7260232],[-113.4223427,48.7265968],[-113.4223522,48.7267946],[-113.4222802,48.726994],[-113.4220232,48.7273053],[-113.4219167,48.7279194],[-113.4218578,48.7281095],[-113.4215676,48.7282956],[-113.4213233,48.7285886],[-113.4213231,48.7288675],[-113.4215832,48.729186],[-113.421914,48.7298448],[-113.4219803,48.7303832],[-113.4222208,48.7305761],[-113.4222799,48.7306738],[-113.4222928,48.7309435],[-113.4223571,48.7311491],[-113.422796,48.7315087],[-113.4228689,48.731894],[-113.4230678,48.7320698],[-113.4232013,48.7323009],[-113.4226153,48.7342566],[-113.4226485,48.7343819],[-113.4235922,48.7350548],[-113.4239794,48.7354695],[-113.4244412,48.7363055],[-113.4251039,48.7370743],[-113.4256113,48.7374415],[-113.4258723,48.7377779],[-113.4263258,48.738722],[-113.4265953,48.7389503],[-113.427587,48.7394395],[-113.4289419,48.7402234],[-113.4291126,48.7406606],[-113.4294237,48.740906],[-113.4299119,48.7411566],[-113.4303917,48.7417656],[-113.4308476,48.7423805],[-113.4310391,48.7427909],[-113.4313622,48.743123],[-113.4316458,48.7434712],[-113.4318225,48.7440316],[-113.4316857,48.7444491],[-113.431725,48.7446272],[-113.4320059,48.7448102],[-113.4327758,48.745784],[-113.4332158,48.746764],[-113.4334926,48.7474239],[-113.4338958,48.7476043],[-113.4344362,48.7480878],[-113.4353528,48.7484732],[-113.4356312,48.7486334],[-113.4357025,48.7486728],[-113.435866,48.7489572],[-113.4360531,48.7491692],[-113.4365064,48.7492586],[-113.4368027,48.7494772],[-113.4369104,48.7497359],[-113.4366894,48.7499475],[-113.4368392,48.7502322],[-113.4369601,48.7504816],[-113.4369975,48.7512635],[-113.444912,48.756512],[-113.4602592,48.7668018],[-113.4757502,48.7771179],[-113.4877423,48.7851008],[-113.490088,48.7879382],[-113.5009231,48.801316],[-113.5108412,48.8133902],[-113.5210112,48.825764],[-113.5315308,48.8384801],[-113.5419984,48.8511469],[-113.5617735,48.8750639],[-113.5631874,48.8768408],[-113.5736269,48.8894289],[-113.5839196,48.9017044],[-113.5943584,48.9140747],[-113.6097867,48.9327371],[-113.6098207,48.9402038],[-113.6097756,48.954537],[-113.6098123,48.9688638],[-113.6097759,48.9833677],[-113.6098045,48.9979716],[-113.6509403,48.99775],[-113.6509444,48.99775],[-113.653011,48.9977381],[-113.6533605,48.9977366],[-113.6533721,48.9977365],[-113.6606485,48.9976985],[-113.6609372,48.9976972],[-113.6947324,48.9975003],[-113.7111112,48.9975747],[-113.7699722,48.9979167],[-113.7699788,48.9978922],[-113.8249326,48.9982092],[-113.8484582,48.9983495],[-113.8711526,48.9984617],[-113.8930458,48.9985788],[-113.9059628,48.9986495],[-113.9059722,48.9986667],[-113.9060542,48.9986502],[-113.9387385,48.9986944],[-113.9749791,48.99875],[-114.0426942,48.9988283],[-114.0587304,48.9988508],[-114.0682072,48.9988717],[-114.1295083,48.9993881],[-114.1802625,48.9998019],[-114.2007967,48.9999689],[-114.25,49.0003407],[-114.2603903,49.0004192],[-114.3213203,49.0008458],[-114.3619247,49.0011094],[-114.3631498,49.0011089],[-114.3686944,49.0011067],[-114.375,49.0011067],[-114.3902286,49.0011067],[-114.4150464,49.0011067],[-114.4640875,49.0010928],[-114.4755007,49.0010949]]]}},{"type":"Feature","properties":{"key":"glacier","name":"Grinnell Glacier","osm":"way/82797068"},"geometry":{"type":"Polygon","coordinates":[[[-113.7345875,48.7529864],[-113.7344826,48.7527789],[-113.7343474,48.7527399],[-113.7339881,48.7525588],[-113.7337288,48.7523025],[-113.7336543,48.7520877],[-113.7337508,48.7518545],[-113.7336222,48.7516785],[-113.7334845,48.7515394],[-113.733386,48.7514575],[-113.7330885,48.7512884],[-113.7327462,48.7509971],[-113.7325482,48.7508458],[-113.7322363,48.7505998],[-113.7320029,48.7503278],[-113.73181,48.7501737],[-113.7317235,48.7500437],[-113.7315933,48.7498986],[-113.7312759,48.749749],[-113.7308685,48.7496339],[-113.730639,48.7495884],[-113.7303074,48.749466],[-113.7297804,48.7493247],[-113.7293338,48.7492071],[-113.7289759,48.748991],[-113.7285084,48.7489038],[-113.7280237,48.748829],[-113.7273927,48.7487114],[-113.7270092,48.7486043],[-113.7267802,48.7485173],[-113.7265377,48.7483597],[-113.7262291,48.7483244],[-113.7259681,48.7482852],[-113.7255543,48.7482586],[-113.7252075,48.7482547],[-113.7245544,48.7482529],[-113.7236059,48.7483461],[-113.7230797,48.7482772],[-113.7222364,48.7482032],[-113.7203181,48.7477713],[-113.7201868,48.747844],[-113.7196359,48.7477914],[-113.7187069,48.7477109],[-113.7173278,48.7478319],[-113.7162633,48.7479877],[-113.7155411,48.7479756],[-113.7150402,48.7480054],[-113.7148964,48.7480571],[-113.7148293,48.7480874],[-113.714806,48.7481447],[-113.714883,48.7482035],[-113.7153936,48.7484047],[-113.7156409,48.7485716],[-113.7155676,48.748806],[-113.7154943,48.7489808],[-113.7154708,48.7491838],[-113.7153447,48.7493533],[-113.7155498,48.7495159],[-113.7159738,48.7497053],[-113.7165735,48.7499116],[-113.7181007,48.7502589],[-113.7186523,48.7502812],[-113.7199526,48.7506082],[-113.7225376,48.7514646],[-113.7248889,48.7527158],[-113.7251473,48.7523762],[-113.7256301,48.7522913],[-113.7265742,48.7524045],[-113.7290921,48.7531049],[-113.7307873,48.7535544],[-113.7310348,48.7532362],[-113.7313543,48.7531226],[-113.7314843,48.7533035],[-113.7317582,48.7534296],[-113.7318794,48.7536636],[-113.7319043,48.7538013],[-113.733041,48.7541727],[-113.7342143,48.7540415],[-113.7344234,48.7532918],[-113.7345875,48.7529864]]]}},{"type":"Feature","properties":{"key":"viewpoint","name":"Mount Gould","osm":"node/peak"},"geometry":{"type":"Point","coordinates":[-113.7147954,48.7428176]}}]}
