{"type": "FeatureCollection", "features": [{"type": "Feature", "properties": {"ADM0_A3": "SWE", "NAME": "Sweden"}, "geometry": {"type": "MultiPolygon", "coordinates": [[[[19.076465, 57.835938], [18.99375, 57.812109], [18.945117, 57.741602], [18.878125, 57.729687], [18.813867, 57.706201], [18.790918, 57.483105], [18.90791, 57.39834], [18.843652, 57.386475], [18.784863, 57.361084], [18.742871, 57.323535], [18.699902, 57.242725], [18.538477, 57.196924], [18.477344, 57.163037], [18.387207, 57.087646], [18.340234, 56.978223], [18.248926, 56.931543], [18.146387, 56.920508], [18.206543, 57.010156], [18.285352, 57.083203], [18.20957, 57.133301], [18.163965, 57.211719], [18.105078, 57.271875], [18.151953, 57.339062], [18.128906, 57.44917], [18.136523, 57.556641], [18.204883, 57.610889], [18.283203, 57.655127], [18.405176, 57.756836], [18.537402, 57.830566], [18.721875, 57.863721], [18.805176, 57.833154], [18.841113, 57.900195], [18.900586, 57.915479], [18.956445, 57.9], [19.076465, 57.835938]]], [[[16.528516, 56.290527], [16.477148, 56.240186], [16.431641, 56.24375], [16.40127, 56.310889], [16.394141, 56.483643], [16.412305, 56.568994], [16.630371, 56.876855], [16.727734, 56.902002], [16.864648, 57.090674], [16.901563, 57.174609], [16.960938, 57.250195], [16.995996, 57.317773], [17.025391, 57.345068], [17.089258, 57.332275], [17.117676, 57.319824], [17.050391, 57.280469], [17.058203, 57.229248], [17.053516, 57.208008], [16.883691, 56.985205], [16.838281, 56.840527], [16.778027, 56.805225], [16.528516, 56.290527]]], [[[11.388281, 59.036523], [11.470703, 58.909521], [11.543555, 58.893018], [11.642773, 58.926074], [11.712207, 59.018652], [11.751855, 59.157568], [11.798145, 59.289893], [11.743359, 59.431445], [11.684863, 59.555762], [11.680762, 59.592285], [11.834277, 59.697168], [11.88125, 59.782471], [11.932129, 59.863672], [11.988281, 59.891309], [12.071875, 59.897607], [12.169238, 59.912891], [12.291992, 59.967236], [12.402051, 60.040039], [12.486133, 60.106787], [12.514648, 60.238867], [12.51582, 60.305225], [12.552832, 60.354492], [12.588672, 60.450732], [12.553809, 60.545654], [12.445312, 60.689648], [12.314648, 60.892139], [12.294141, 61.002686], [12.353711, 61.023193], [12.467578, 61.041504], [12.683008, 61.046826], [12.706055, 61.059863], [12.727832, 61.108252], [12.776367, 61.173975], [12.828223, 61.221826], [12.863672, 61.290283], [12.880762, 61.352295], [12.75752, 61.445703], [12.596094, 61.541309], [12.486816, 61.572998], [12.29209, 61.653467], [12.155371, 61.720752], [12.233691, 61.976855], [12.291992, 62.167432], [12.301367, 62.21377], [12.303516, 62.285596], [12.114551, 62.591895], [12.121875, 62.66001], [12.139844, 62.721338], [12.119629, 62.825928], [12.108594, 62.919482], [12.141016, 62.947852], [12.218164, 63.000635], [12.144629, 63.08252], [12.138672, 63.08916], [11.999902, 63.291699], [12.212109, 63.492236], [12.175195, 63.595947], [12.301953, 63.671191], [12.532715, 63.843555], [12.6625, 63.940479], [12.690039, 63.957422], [12.792773, 64], [12.987598, 64.050488], [13.203516, 64.075098], [13.299609, 64.074805], [13.670703, 64.040625], [13.960547, 64.014014], [14.002734, 64.040723], [14.063281, 64.095508], [14.141211, 64.173535], [14.148047, 64.260303], [14.119922, 64.387744], [14.077637, 64.464014], [13.873535, 64.513574], [13.650293, 64.581543], [13.924805, 64.796777], [14.115137, 64.946143], [14.352441, 65.17085], [14.42627, 65.264355], [14.479688, 65.301465], [14.549512, 65.646387], [14.595801, 65.742871], [14.63457, 65.793262], [14.635156, 65.84502], [14.609961, 65.932275], [14.543262, 66.129346], [14.917969, 66.153711], [15.040039, 66.167529], [15.15332, 66.191064], [15.374902, 66.252051], [15.483789, 66.305957], [15.422949, 66.489844], [15.557031, 66.5521], [15.88418, 66.768848], [16.237695, 66.976416], [16.403516, 67.05498], [16.420703, 67.093359], [16.434277, 67.155078], [16.360645, 67.252002], [16.281543, 67.312061], [16.127441, 67.42583], [16.193555, 67.505176], [16.307129, 67.520605], [16.457129, 67.551758], [16.574121, 67.61958], [16.585547, 67.62832], [16.783594, 67.89502], [17.170508, 68.030127], [17.324609, 68.103809], [17.564746, 68.048438], [17.916699, 67.964893], [18.073242, 68.087842], [18.125, 68.133447], [18.17666, 68.200635], [18.155957, 68.316846], [18.14707, 68.467773], [18.162598, 68.528418], [18.303027, 68.55542], [18.378613, 68.562402], [18.769824, 68.500049], [18.868262, 68.501123], [19.052637, 68.492725], [19.258984, 68.465332], [19.691211, 68.392432], [19.87002, 68.362256], [19.969824, 68.356396], [20.055957, 68.390381], [20.240039, 68.477539], [19.968848, 68.542041], [20.147461, 68.607324], [20.240039, 68.673145], [20.319434, 68.754053], [20.348047, 68.84873], [20.337109, 68.899658], [20.282324, 68.934326], [20.116699, 69.020898], [20.491992, 69.033301], [20.622168, 69.036865], [20.895117, 68.979834], [20.907031, 68.96748], [20.908984, 68.937744], [20.918555, 68.906934], [21.183398, 68.828809], [21.259766, 68.787451], [21.422363, 68.724609], [21.46543, 68.690674], [21.616016, 68.650977], [21.724023, 68.608545], [21.850195, 68.574121], [21.997461, 68.520605], [22.195117, 68.477979], [22.362109, 68.464062], [22.782422, 68.391016], [22.854102, 68.367334], [22.975391, 68.316455], [23.097852, 68.257568], [23.18252, 68.136621], [23.318555, 68.130322], [23.355469, 68.088672], [23.474219, 68.017334], [23.638867, 67.954395], [23.63291, 67.933203], [23.501855, 67.875195], [23.487793, 67.796582], [23.500195, 67.696191], [23.541309, 67.614307], [23.537012, 67.590381], [23.504492, 67.562158], [23.46543, 67.517871], [23.451465, 67.479199], [23.454883, 67.460254], [23.468066, 67.449951], [23.537109, 67.44917], [23.66084, 67.440039], [23.733594, 67.4229], [23.774902, 67.328613], [23.760938, 67.310498], [23.656641, 67.267822], [23.626074, 67.233936], [23.623047, 67.184131], [23.641504, 67.129395], [23.677344, 67.068115], [23.758984, 67.002588], [23.869336, 66.934033], [23.941797, 66.877832], [23.976074, 66.838232], [23.988574, 66.810547], [23.938867, 66.775732], [23.894141, 66.706885], [23.88584, 66.628027], [23.865527, 66.576611], [23.768359, 66.505859], [23.701172, 66.480762], [23.682031, 66.443408], [23.673828, 66.380713], [23.693555, 66.304297], [23.700293, 66.252637], [23.720996, 66.21543], [23.751465, 66.191162], [23.907324, 66.148242], [23.994629, 66.060352], [24.049023, 65.989844], [24.155469, 65.805273], [23.890527, 65.782227], [23.691406, 65.828516], [23.59209, 65.805322], [23.418359, 65.804346], [23.221094, 65.786133], [23.15459, 65.749902], [23.102344, 65.735352], [22.919336, 65.786475], [22.746582, 65.870947], [22.620313, 65.806543], [22.538574, 65.794336], [22.465137, 65.852637], [22.400977, 65.862109], [22.366309, 65.842676], [22.335938, 65.791162], [22.287598, 65.750635], [22.275, 65.725], [22.266602, 65.621533], [22.254004, 65.597559], [22.08623, 65.610938], [22.096289, 65.583789], [22.132812, 65.570117], [22.147559, 65.552881], [22.086719, 65.530225], [21.920117, 65.532373], [21.903125, 65.50835], [21.95, 65.470361], [21.913477, 65.437109], [21.87959, 65.424023], [21.680664, 65.403369], [21.565527, 65.408105], [21.532617, 65.386572], [21.523438, 65.358594], [21.545215, 65.331152], [21.595996, 65.316553], [21.612695, 65.299121], [21.60918, 65.261377], [21.566895, 65.254541], [21.446875, 65.32085], [21.410352, 65.317432], [21.437793, 65.282959], [21.506348, 65.245361], [21.545996, 65.206982], [21.580664, 65.160791], [21.573926, 65.125781], [21.424902, 65.012695], [21.29375, 64.94126], [21.195898, 64.876904], [21.138184, 64.808691], [21.20498, 64.774316], [21.279297, 64.724707], [21.331543, 64.629346], [21.393848, 64.544336], [21.519629, 64.463086], [21.494336, 64.416113], [21.465039, 64.37959], [21.255762, 64.29917], [21.018457, 64.177979], [20.762695, 63.867822], [20.677637, 63.82627], [20.453711, 63.77373], [20.371387, 63.7229], [20.204688, 63.662451], [19.913672, 63.610547], [19.781641, 63.538184], [19.72207, 63.46333], [19.655762, 63.458008], [19.590039, 63.487256], [19.502344, 63.509033], [19.490918, 63.460205], [19.494629, 63.424365], [19.354297, 63.47749], [19.288086, 63.42876], [19.236328, 63.347363], [19.034375, 63.237744], [18.816699, 63.257471], [18.792285, 63.238135], [18.850195, 63.224121], [18.858984, 63.206592], [18.819434, 63.197266], [18.75957, 63.198242], [18.667188, 63.176563], [18.606445, 63.178271], [18.577637, 63.126416], [18.530664, 63.063525], [18.407715, 63.0375], [18.344238, 63.032129], [18.312891, 62.996387], [18.502051, 62.988867], [18.486914, 62.958594], [18.482617, 62.92832], [18.463086, 62.89585], [18.248047, 62.849072], [18.214941, 62.812207], [18.17002, 62.789355], [18.074414, 62.790674], [18.07793, 62.811963], [18.093555, 62.836035], [17.951074, 62.833887], [17.906641, 62.886768], [17.87959, 62.873193], [17.895605, 62.830518], [17.93291, 62.786133], [17.974414, 62.721045], [17.940723, 62.679883], [17.903027, 62.659473], [17.930469, 62.640625], [18.006543, 62.62627], [18.037305, 62.600537], [17.94707, 62.578467], [17.834473, 62.502734], [17.717773, 62.500879], [17.646387, 62.450879], [17.570605, 62.451025], [17.508984, 62.48252], [17.410254, 62.508398], [17.378418, 62.462793], [17.37334, 62.426514], [17.429004, 62.334717], [17.535254, 62.263672], [17.633691, 62.233008], [17.562891, 62.212305], [17.510156, 62.166309], [17.446582, 62.022656], [17.412012, 61.966113], [17.374512, 61.866309], [17.398242, 61.78208], [17.417285, 61.740674], [17.46543, 61.684473], [17.33457, 61.691699], [17.196387, 61.724561], [17.215625, 61.656348], [17.130762, 61.575732], [17.146582, 61.504639], [17.164258, 61.458301], [17.137988, 61.381689], [17.17793, 61.357617], [17.199609, 61.311963], [17.163867, 61.278271], [17.179785, 61.249268], [17.185742, 61.146533], [17.212891, 60.98584], [17.20293, 60.951855], [17.278906, 60.812158], [17.26123, 60.763184], [17.250977, 60.700781], [17.359863, 60.64082], [17.457031, 60.641797], [17.555469, 60.642725], [17.593066, 60.627686], [17.630762, 60.585254], [17.661133, 60.535156], [17.742188, 60.539307], [17.871582, 60.580078], [17.955762, 60.589795], [18.011328, 60.511426], [18.1625, 60.40791], [18.250488, 60.361523], [18.4, 60.337109], [18.55752, 60.253564], [18.535449, 60.152881], [18.601172, 60.119238], [18.787012, 60.079492], [18.852734, 60.025879], [18.884277, 59.980176], [18.933203, 59.942285], [18.99043, 59.827783], [18.970508, 59.757227], [18.895605, 59.732959], [18.71875, 59.657373], [18.639941, 59.600928], [18.578125, 59.565771], [18.402441, 59.490381], [18.338086, 59.476855], [18.276465, 59.437646], [18.216895, 59.420508], [18.163574, 59.430371], [17.964258, 59.359375], [17.979785, 59.329053], [18.132617, 59.316211], [18.210547, 59.331445], [18.270508, 59.367139], [18.336035, 59.375342], [18.395801, 59.368604], [18.45918, 59.396729], [18.508887, 59.407959], [18.560254, 59.394482], [18.617578, 59.327051], [18.498633, 59.291943], [18.414258, 59.290332], [18.373047, 59.179736], [18.321973, 59.132227], [18.285352, 59.109375], [18.098145, 59.062305], [17.974609, 59.002637], [17.829004, 58.95459], [17.76543, 58.965039], [17.669629, 58.916211], [17.456738, 58.858398], [17.347656, 58.780518], [17.102832, 58.71084], [16.978125, 58.65415], [16.639355, 58.651172], [16.31582, 58.663623], [16.214258, 58.63667], [16.318066, 58.62832], [16.39082, 58.601855], [16.478027, 58.612891], [16.683008, 58.599658], [16.788477, 58.585254], [16.923828, 58.492578], [16.824316, 58.459619], [16.651953, 58.434326], [16.716602, 58.302881], [16.769922, 58.214258], [16.700098, 58.160791], [16.694922, 57.917529], [16.596973, 57.912891], [16.555371, 57.812256], [16.58623, 57.760937], [16.583789, 57.641748], [16.604199, 57.568311], [16.652246, 57.500684], [16.630859, 57.430176], [16.475977, 57.265137], [16.479492, 57.187695], [16.507324, 57.141699], [16.52793, 57.068164], [16.45752, 56.926807], [16.407813, 56.808691], [16.34873, 56.709277], [16.216504, 56.58999], [16.150684, 56.50083], [15.99668, 56.222607], [15.920313, 56.167383], [15.82666, 56.124951], [15.722266, 56.164209], [15.626563, 56.185596], [15.509668, 56.183008], [15.326563, 56.15083], [15.051172, 56.172217], [14.782031, 56.161914], [14.713965, 56.134131], [14.754785, 56.033154], [14.655566, 56.019922], [14.558594, 56.048633], [14.473242, 56.014355], [14.401953, 55.976758], [14.261914, 55.887549], [14.215039, 55.832617], [14.20293, 55.72915], [14.276465, 55.636377], [14.341699, 55.527734], [14.17373, 55.396631], [14.07998, 55.392187], [13.806348, 55.428564], [13.321387, 55.346387], [12.88584, 55.411377], [12.940625, 55.481592], [12.93877, 55.533203], [12.963379, 55.612598], [12.978027, 55.693799], [12.973926, 55.748145], [12.941992, 55.806055], [12.83457, 55.881836], [12.592578, 56.137598], [12.520996, 56.245557], [12.471191, 56.290527], [12.507031, 56.292969], [12.706348, 56.23501], [12.752832, 56.242139], [12.80166, 56.263916], [12.742188, 56.346875], [12.691113, 56.384424], [12.656445, 56.440576], [12.773145, 56.455762], [12.857422, 56.452393], [12.919531, 56.515576], [12.883691, 56.617725], [12.793164, 56.64917], [12.717578, 56.662842], [12.572656, 56.823291], [12.421484, 56.906396], [12.151855, 57.226953], [12.053223, 57.446973], [11.961523, 57.426074], [11.916992, 57.521924], [11.885059, 57.612695], [11.878711, 57.679443], [11.734961, 57.717676], [11.729102, 57.764453], [11.703223, 57.973193], [11.549023, 58.001221], [11.449316, 58.118359], [11.431543, 58.33999], [11.32998, 58.380322], [11.248242, 58.369141], [11.252051, 58.424072], [11.271582, 58.475635], [11.223828, 58.679932], [11.20791, 58.866406], [11.169141, 58.922705], [11.147168, 58.988623], [11.166895, 59.045557], [11.195801, 59.078271], [11.295313, 59.086865], [11.388281, 59.036523]]], [[[19.156348, 57.922607], [19.138379, 57.860254], [19.086523, 57.86499], [19.039258, 57.911035], [19.134863, 57.981348], [19.281152, 57.977539], [19.331445, 57.962891], [19.156348, 57.922607]]], [[[18.416211, 59.029102], [18.371875, 59.01958], [18.349902, 59.022607], [18.377246, 59.069043], [18.397559, 59.089111], [18.464941, 59.107861], [18.485547, 59.10459], [18.416211, 59.029102]]], [[[18.59541, 59.470361], [18.570312, 59.437256], [18.545117, 59.477832], [18.555176, 59.485791], [18.572363, 59.52583], [18.620898, 59.547803], [18.698438, 59.534619], [18.697949, 59.524609], [18.623828, 59.492188], [18.59541, 59.470361]]]]}}, {"type": "Feature", "properties": {"ADM0_A3": "ESP", "NAME": "Spain"}, "geometry": {"type": "MultiPolygon", "coordinates": [[[[1.593945, 38.67207], [1.571191, 38.658838], [1.50498, 38.670996], [1.405762, 38.670996], [1.401953, 38.711426], [1.417188, 38.739648], [1.436328, 38.768213], [1.496875, 38.711914], [1.592676, 38.701465], [1.593945, 38.67207]]], [[[3.145313, 39.790088], [3.241113, 39.756689], [3.342188, 39.786719], [3.395898, 39.777295], [3.448926, 39.76123], [3.461816, 39.697754], [3.414648, 39.627148], [3.34873, 39.555664], [3.292969, 39.477051], [3.244727, 39.386621], [3.15459, 39.333252], [3.072852, 39.30127], [2.900098, 39.368359], [2.799805, 39.385059], [2.769824, 39.410254], [2.745996, 39.510254], [2.700586, 39.542139], [2.634082, 39.556201], [2.575879, 39.530664], [2.499512, 39.477881], [2.458789, 39.530469], [2.394336, 39.540381], [2.37002, 39.57207], [2.371289, 39.613086], [2.784961, 39.854834], [2.904785, 39.908301], [3.158691, 39.970508], [3.197559, 39.961084], [3.164453, 39.924219], [3.166992, 39.907715], [3.198633, 39.889844], [3.190918, 39.861377], [3.158691, 39.836572], [3.145313, 39.790088]]], [[[4.293652, 39.841846], [4.275293, 39.830273], [3.967676, 39.94585], [3.867188, 39.95874], [3.842676, 39.976367], [3.84541, 40.036475], [3.853418, 40.063037], [4.05918, 40.075098], [4.225781, 40.032373], [4.315137, 39.917236], [4.32207, 39.89751], [4.293652, 39.841846]]], [[[1.445215, 38.918701], [1.408984, 38.857275], [1.256934, 38.879004], [1.22334, 38.903857], [1.25625, 38.973389], [1.299805, 38.981738], [1.302539, 39.031152], [1.348633, 39.080811], [1.564453, 39.121045], [1.613184, 39.087402], [1.623633, 39.038818], [1.494531, 38.93252], [1.445215, 38.918701]]], [[[-1.794043, 43.407324], [-1.792725, 43.372559], [-1.753271, 43.324707], [-1.712842, 43.307031], [-1.627148, 43.282471], [-1.561475, 43.279199], [-1.471729, 43.267676], [-1.410693, 43.240088], [-1.407324, 43.197119], [-1.422607, 43.149121], [-1.459424, 43.10498], [-1.480469, 43.071143], [-1.46084, 43.051758], [-1.42876, 43.036768], [-1.394043, 43.032617], [-1.370508, 43.037598], [-1.352734, 43.064258], [-1.318848, 43.096973], [-1.300049, 43.100977], [-1.301562, 43.082471], [-1.285449, 43.059619], [-1.175439, 43.021143], [-0.933838, 42.949512], [-0.839209, 42.948193], [-0.762646, 42.939795], [-0.740186, 42.909521], [-0.586426, 42.798975], [-0.549805, 42.802002], [-0.481152, 42.799316], [-0.398438, 42.808105], [-0.338574, 42.828809], [-0.299316, 42.825342], [-0.256055, 42.803955], [-0.205322, 42.785303], [-0.140039, 42.748926], [-0.081494, 42.703857], [-0.041162, 42.689111], [0.201367, 42.719336], [0.255469, 42.69292], [0.312891, 42.693262], [0.377246, 42.700146], [0.517676, 42.686279], [0.631641, 42.6896], [0.641992, 42.700635], [0.651758, 42.800439], [0.669824, 42.835742], [0.696875, 42.845117], [0.764453, 42.838037], [1.010059, 42.778955], [1.111133, 42.742041], [1.208301, 42.713135], [1.293262, 42.709961], [1.349414, 42.690674], [1.42832, 42.595898], [1.414844, 42.548389], [1.421973, 42.530811], [1.430273, 42.497852], [1.428125, 42.461328], [1.448828, 42.437451], [1.48623, 42.434473], [1.534082, 42.441699], [1.586426, 42.455957], [1.678516, 42.49668], [1.706055, 42.50332], [1.859766, 42.45708], [1.92793, 42.426318], [1.951465, 42.392773], [1.986523, 42.358496], [2.032715, 42.353516], [2.09834, 42.386084], [2.200391, 42.420947], [2.374414, 42.390283], [2.567969, 42.345801], [2.65166, 42.340479], [2.654785, 42.362109], [2.67002, 42.393018], [2.701855, 42.408496], [2.749414, 42.413037], [2.815625, 42.429248], [2.891406, 42.456055], [2.97002, 42.467236], [3.052637, 42.447217], [3.152148, 42.431006], [3.211426, 42.431152], [3.239844, 42.367871], [3.287891, 42.343701], [3.306738, 42.288965], [3.218652, 42.260352], [3.166406, 42.256494], [3.150391, 42.162451], [3.175195, 42.135986], [3.224609, 42.111133], [3.238086, 42.082227], [3.248047, 41.944238], [3.146875, 41.861035], [3.004883, 41.767432], [2.310938, 41.466504], [2.145605, 41.320752], [2.082617, 41.287402], [1.566602, 41.195605], [1.205859, 41.097559], [1.03291, 41.062061], [0.816895, 40.891602], [0.714648, 40.822852], [0.796094, 40.803809], [0.891113, 40.722363], [0.85918, 40.68623], [0.720605, 40.630469], [0.660059, 40.61333], [0.627148, 40.622217], [0.596094, 40.614502], [0.363672, 40.319043], [0.158398, 40.106592], [0.043066, 40.013965], [-0.075146, 39.875928], [-0.327002, 39.519873], [-0.328955, 39.41709], [-0.204932, 39.062598], [-0.133789, 38.969482], [-0.034131, 38.891211], [0.154883, 38.824658], [0.201563, 38.75918], [0.136328, 38.696777], [-0.052734, 38.585693], [-0.38125, 38.435645], [-0.520801, 38.317285], [-0.550684, 38.203125], [-0.646777, 38.151855], [-0.683203, 37.992041], [-0.741553, 37.886133], [-0.752734, 37.850244], [-0.814648, 37.769922], [-0.823096, 37.711621], [-0.721582, 37.631055], [-0.771875, 37.59624], [-0.822168, 37.580762], [-0.938086, 37.571338], [-1.327539, 37.561133], [-1.640967, 37.386963], [-1.797607, 37.232861], [-1.939307, 36.94585], [-2.111523, 36.77666], [-2.187695, 36.745459], [-2.305566, 36.819824], [-2.452832, 36.831152], [-2.595703, 36.806494], [-2.670605, 36.747559], [-2.787549, 36.714746], [-2.901855, 36.743164], [-3.14917, 36.758496], [-3.259131, 36.755762], [-3.43125, 36.70791], [-3.578809, 36.739844], [-3.827783, 36.756055], [-4.366846, 36.718115], [-4.434863, 36.700244], [-4.502246, 36.62915], [-4.674121, 36.506445], [-4.935303, 36.502051], [-5.171484, 36.423779], [-5.230518, 36.373633], [-5.329687, 36.235742], [-5.360937, 36.134912], [-5.381592, 36.134082], [-5.407227, 36.158887], [-5.443604, 36.150586], [-5.4625, 36.073779], [-5.55127, 36.038818], [-5.625488, 36.025928], [-5.808398, 36.08833], [-5.960693, 36.181738], [-6.040674, 36.188428], [-6.170459, 36.333789], [-6.22627, 36.426465], [-6.265918, 36.526514], [-6.257715, 36.564844], [-6.268945, 36.596729], [-6.384131, 36.637012], [-6.412256, 36.728857], [-6.32832, 36.848145], [-6.259424, 36.898975], [-6.216797, 36.913574], [-6.320947, 36.908496], [-6.396191, 36.831641], [-6.492432, 36.954639], [-6.884619, 37.194238], [-6.859375, 37.24917], [-6.86377, 37.278906], [-6.929492, 37.214941], [-6.974658, 37.198437], [-7.174951, 37.208789], [-7.406152, 37.179443], [-7.467187, 37.428027], [-7.496045, 37.523584], [-7.503516, 37.585498], [-7.443945, 37.728271], [-7.378906, 37.786377], [-7.292236, 37.906445], [-7.185449, 38.006348], [-7.07251, 38.030029], [-7.022852, 38.044727], [-6.981104, 38.121973], [-6.957568, 38.187891], [-6.974805, 38.194434], [-7.106396, 38.181006], [-7.343018, 38.457422], [-7.335791, 38.501465], [-7.305957, 38.566846], [-7.286377, 38.649365], [-7.281543, 38.714551], [-7.219922, 38.770508], [-7.125488, 38.826953], [-7.046045, 38.907031], [-7.00625, 38.985254], [-6.997949, 39.056445], [-7.042969, 39.10708], [-7.172412, 39.135205], [-7.305762, 39.338135], [-7.335449, 39.465137], [-7.362695, 39.47832], [-7.445117, 39.536182], [-7.524219, 39.644727], [-7.535693, 39.661572], [-7.454102, 39.680664], [-7.117676, 39.681689], [-7.047412, 39.705566], [-7.036719, 39.713965], [-6.975391, 39.798389], [-6.911182, 39.937109], [-6.896094, 40.021826], [-6.916406, 40.056836], [-7.027832, 40.142627], [-7.032617, 40.16792], [-7.014697, 40.20835], [-6.948437, 40.251611], [-6.858887, 40.300732], [-6.810156, 40.343115], [-6.821777, 40.37627], [-6.847949, 40.410986], [-6.852051, 40.443262], [-6.835693, 40.483154], [-6.829834, 40.619092], [-6.818359, 40.654053], [-6.835889, 40.77749], [-6.857715, 40.87832], [-6.928467, 41.009131], [-6.915527, 41.038037], [-6.882812, 41.062402], [-6.775781, 41.107715], [-6.690137, 41.214502], [-6.565918, 41.303711], [-6.403125, 41.375391], [-6.289355, 41.455029], [-6.244336, 41.515918], [-6.2125, 41.532031], [-6.22168, 41.560449], [-6.243115, 41.601807], [-6.308057, 41.642187], [-6.391699, 41.665381], [-6.484668, 41.664404], [-6.542187, 41.67251], [-6.558984, 41.704053], [-6.552588, 41.789551], [-6.55752, 41.874121], [-6.575342, 41.913086], [-6.618262, 41.942383], [-6.703613, 41.93457], [-6.777295, 41.958496], [-6.833203, 41.96416], [-6.865527, 41.945264], [-7.030469, 41.950635], [-7.099121, 41.964209], [-7.147119, 41.981152], [-7.17793, 41.97168], [-7.195361, 41.955225], [-7.19834, 41.929395], [-7.209619, 41.895264], [-7.268555, 41.864404], [-7.403613, 41.833691], [-7.512598, 41.835986], [-7.612598, 41.857959], [-7.644678, 41.873975], [-7.693066, 41.888477], [-7.896387, 41.870557], [-7.92085, 41.883643], [-7.990967, 41.851904], [-8.094434, 41.814209], [-8.15249, 41.811963], [-8.173535, 41.819971], [-8.18125, 41.836963], [-8.224756, 41.89585], [-8.21333, 41.9271], [-8.12998, 42.018164], [-8.139307, 42.039941], [-8.173584, 42.069385], [-8.204199, 42.111865], [-8.213086, 42.133691], [-8.266064, 42.137402], [-8.322559, 42.115088], [-8.538086, 42.069336], [-8.589648, 42.052734], [-8.682959, 42.008496], [-8.777148, 41.941064], [-8.852344, 41.926904], [-8.87832, 41.946875], [-8.887207, 42.105273], [-8.772461, 42.210596], [-8.690918, 42.27417], [-8.729199, 42.287012], [-8.81582, 42.285254], [-8.809961, 42.334473], [-8.769385, 42.358154], [-8.730029, 42.411719], [-8.776172, 42.434814], [-8.812109, 42.470068], [-8.809912, 42.562354], [-8.799902, 42.599902], [-8.811523, 42.640332], [-8.987793, 42.585645], [-9.033105, 42.593848], [-9.035059, 42.662354], [-8.937207, 42.766699], [-8.927197, 42.798584], [-9.041602, 42.814014], [-9.127197, 42.865234], [-9.179443, 42.910986], [-9.235205, 42.976904], [-9.235645, 43.035791], [-9.178076, 43.174023], [-9.095557, 43.214209], [-9.024512, 43.238965], [-8.873682, 43.334424], [-8.665625, 43.316602], [-8.537061, 43.337061], [-8.421582, 43.38584], [-8.355469, 43.396826], [-8.248926, 43.439404], [-8.252295, 43.496924], [-8.288867, 43.5396], [-8.256738, 43.579883], [-8.137158, 43.629053], [-8.004687, 43.694385], [-7.852734, 43.706982], [-7.698145, 43.764551], [-7.59458, 43.727344], [-7.503613, 43.739941], [-7.399316, 43.695801], [-7.261963, 43.594629], [-7.060986, 43.553955], [-6.900684, 43.585645], [-6.617285, 43.592383], [-6.475684, 43.578906], [-6.224121, 43.603857], [-6.080127, 43.594922], [-5.84668, 43.645068], [-5.66582, 43.582471], [-5.315723, 43.553174], [-5.105273, 43.501855], [-4.523047, 43.415723], [-4.312793, 43.414746], [-4.015332, 43.463086], [-3.889355, 43.499414], [-3.774023, 43.477881], [-3.604639, 43.519482], [-3.523633, 43.511035], [-3.417871, 43.451709], [-3.045605, 43.371582], [-2.947705, 43.439697], [-2.875049, 43.454443], [-2.60708, 43.412744], [-2.337109, 43.328027], [-2.19668, 43.321924], [-1.991309, 43.345068], [-1.828516, 43.40083], [-1.794043, 43.407324]]], [[[-16.334473, 28.379932], [-16.418213, 28.151416], [-16.49624, 28.061914], [-16.542773, 28.03208], [-16.658008, 28.007178], [-16.794727, 28.14917], [-16.866016, 28.293262], [-16.905322, 28.3396], [-16.843066, 28.376123], [-16.752051, 28.369824], [-16.556836, 28.400488], [-16.517432, 28.412695], [-16.318994, 28.558203], [-16.123633, 28.575977], [-16.119141, 28.528271], [-16.334473, 28.379932]]], [[[-13.715967, 28.91123], [-13.783984, 28.845459], [-13.859912, 28.869092], [-13.823633, 29.01333], [-13.788184, 29.056104], [-13.650098, 29.118994], [-13.535059, 29.144287], [-13.501416, 29.21123], [-13.463574, 29.237207], [-13.422949, 29.19751], [-13.45376, 29.151367], [-13.47793, 29.006592], [-13.554688, 28.960205], [-13.715967, 28.91123]]], [[[-14.196777, 28.169287], [-14.332617, 28.056006], [-14.468604, 28.082373], [-14.491797, 28.100928], [-14.355566, 28.129687], [-14.231982, 28.21582], [-14.152588, 28.406641], [-14.028369, 28.617432], [-14.003369, 28.706689], [-13.95415, 28.741455], [-13.886279, 28.744678], [-13.857227, 28.738037], [-13.827148, 28.691211], [-13.827588, 28.585156], [-13.862988, 28.409326], [-13.928027, 28.253467], [-14.196777, 28.169287]]], [[[-15.400586, 28.147363], [-15.406689, 28.070508], [-15.383154, 27.992822], [-15.38916, 27.874707], [-15.436768, 27.810693], [-15.559375, 27.746973], [-15.655762, 27.758398], [-15.710303, 27.784082], [-15.807324, 27.887549], [-15.809473, 27.994482], [-15.720947, 28.06416], [-15.682764, 28.154053], [-15.452783, 28.136914], [-15.432715, 28.154248], [-15.415479, 28.159326], [-15.400586, 28.147363]]], [[[-17.184668, 28.021973], [-17.225391, 28.013525], [-17.273926, 28.038281], [-17.324902, 28.117676], [-17.290332, 28.176318], [-17.258594, 28.203174], [-17.214355, 28.199268], [-17.129639, 28.155957], [-17.10376, 28.111133], [-17.101074, 28.083447], [-17.184668, 28.021973]]], [[[-17.887939, 27.80957], [-17.984766, 27.646387], [-18.106592, 27.707471], [-18.135937, 27.72793], [-18.160547, 27.761475], [-18.043359, 27.768115], [-17.924512, 27.850146], [-17.887939, 27.80957]]], [[[-17.834277, 28.493213], [-17.859375, 28.485693], [-17.882129, 28.5646], [-18.000781, 28.758252], [-17.928809, 28.84458], [-17.797559, 28.846777], [-17.744531, 28.786572], [-17.726562, 28.724463], [-17.751611, 28.688574], [-17.744385, 28.616016], [-17.758008, 28.569092], [-17.834277, 28.493213]]]]}}, {"type": "Feature", "properties": {"ADM0_A3": "POL", "NAME": "Poland"}, "geometry": {"type": "Polygon", "coordinates": [[[23.605273, 51.51792], [23.658887, 51.448975], [23.679688, 51.394922], [23.657617, 51.35249], [23.664453, 51.310059], [23.712207, 51.265137], [23.863477, 51.126221], [23.938086, 50.992529], [23.985742, 50.94043], [24.095801, 50.872754], [24.105762, 50.844971], [24.061621, 50.819531], [24.025977, 50.816162], [23.99707, 50.809375], [23.978418, 50.785596], [24.007324, 50.760156], [24.046289, 50.722803], [24.094727, 50.617041], [24.089941, 50.530469], [24.052637, 50.508447], [24.00498, 50.457031], [23.972656, 50.410059], [23.711719, 50.377344], [23.649023, 50.327051], [23.506152, 50.229834], [23.408594, 50.173926], [23.264453, 50.072852], [23.036328, 49.899072], [22.952246, 49.826367], [22.890723, 49.76626], [22.706152, 49.606201], [22.649414, 49.539014], [22.660645, 49.483691], [22.719922, 49.353809], [22.732422, 49.295166], [22.721973, 49.240967], [22.702344, 49.192725], [22.705664, 49.171191], [22.760156, 49.13623], [22.84707, 49.08125], [22.852051, 49.062744], [22.839746, 49.038916], [22.809766, 49.020752], [22.70127, 49.039941], [22.57998, 49.077197], [22.538672, 49.072705], [22.473047, 49.081299], [22.202539, 49.153223], [22.020117, 49.209521], [22.002148, 49.246094], [21.967676, 49.299072], [21.890137, 49.343457], [21.712109, 49.381934], [21.639648, 49.411963], [21.350488, 49.42876], [21.225, 49.429443], [21.136133, 49.417041], [21.079395, 49.418262], [21.001172, 49.339844], [20.947266, 49.31709], [20.868457, 49.314697], [20.799512, 49.328662], [20.729004, 49.369922], [20.616113, 49.391699], [20.53457, 49.381201], [20.474512, 49.390186], [20.422656, 49.392334], [20.404688, 49.384082], [20.362988, 49.385254], [20.302539, 49.365527], [20.236523, 49.337646], [20.163672, 49.316406], [20.107617, 49.270752], [20.057617, 49.181299], [19.916113, 49.221387], [19.868945, 49.204004], [19.802246, 49.192334], [19.756641, 49.204395], [19.767383, 49.235205], [19.787988, 49.269971], [19.787012, 49.318555], [19.773926, 49.372168], [19.730078, 49.3896], [19.66416, 49.396045], [19.630273, 49.406641], [19.62666, 49.424365], [19.593066, 49.447119], [19.534766, 49.504785], [19.479688, 49.576367], [19.441602, 49.597705], [19.38623, 49.563623], [19.302344, 49.524854], [19.250195, 49.511426], [19.149414, 49.4], [18.968359, 49.39624], [18.957227, 49.448291], [18.938184, 49.498291], [18.832227, 49.510791], [18.829297, 49.540137], [18.806934, 49.613721], [18.594629, 49.757812], [18.568848, 49.81792], [18.577148, 49.841113], [18.562402, 49.879346], [18.516211, 49.902393], [18.348438, 49.929834], [18.305273, 49.914062], [18.266309, 49.930273], [18.205273, 49.964746], [18.099219, 49.992773], [18.087695, 50.007275], [18.049512, 50.031934], [18.02832, 50.035254], [18.014648, 50.020264], [17.983789, 49.999072], [17.874805, 49.972266], [17.83125, 49.983301], [17.791699, 50.006592], [17.746582, 50.056787], [17.681055, 50.100781], [17.627051, 50.116406], [17.596289, 50.139502], [17.589355, 50.157471], [17.709277, 50.193555], [17.735449, 50.230762], [17.720117, 50.298633], [17.702246, 50.307178], [17.654688, 50.284229], [17.55459, 50.264062], [17.462305, 50.254785], [17.415234, 50.254785], [17.151953, 50.37832], [16.980762, 50.416113], [16.880078, 50.427051], [16.869141, 50.414502], [16.914746, 50.345215], [16.993359, 50.259717], [16.989648, 50.236914], [16.895313, 50.201953], [16.841797, 50.186719], [16.778613, 50.157031], [16.725293, 50.116064], [16.679102, 50.097461], [16.63916, 50.102148], [16.59668, 50.121924], [16.487598, 50.248389], [16.350488, 50.345215], [16.33418, 50.366895], [16.291309, 50.371875], [16.230762, 50.394092], [16.210352, 50.42373], [16.240723, 50.454687], [16.28252, 50.483008], [16.356641, 50.500488], [16.379102, 50.516895], [16.392285, 50.54165], [16.419727, 50.573633], [16.4125, 50.585156], [16.359961, 50.621387], [16.282227, 50.655615], [16.066406, 50.629932], [16.007227, 50.611621], [15.973828, 50.635449], [15.948535, 50.670264], [15.893945, 50.676904], [15.819238, 50.708691], [15.730566, 50.739697], [15.643945, 50.748877], [15.463965, 50.793848], [15.394629, 50.796289], [15.354395, 50.811768], [15.312598, 50.845752], [15.277051, 50.883008], [15.258594, 50.958545], [15.125977, 50.992871], [14.99375, 51.014355], [14.984473, 51.003418], [14.989941, 50.927246], [14.98291, 50.886572], [14.895801, 50.861377], [14.809375, 50.858984], [14.814258, 50.871631], [14.91748, 51.00874], [14.963867, 51.095117], [15.016602, 51.252734], [14.953125, 51.377148], [14.935547, 51.435352], [14.905957, 51.46333], [14.724707, 51.523877], [14.710938, 51.544922], [14.738672, 51.627148], [14.724902, 51.661719], [14.681348, 51.698193], [14.623926, 51.770801], [14.60166, 51.832373], [14.674902, 51.904834], [14.692969, 51.958008], [14.724805, 52.030859], [14.748145, 52.070801], [14.752539, 52.081836], [14.70459, 52.110205], [14.692383, 52.150049], [14.705371, 52.207471], [14.679883, 52.25], [14.615625, 52.277637], [14.573926, 52.31416], [14.55459, 52.359668], [14.569727, 52.431104], [14.619434, 52.528516], [14.514063, 52.645605], [14.253711, 52.78252], [14.128613, 52.878223], [14.138867, 52.932861], [14.193652, 52.982324], [14.293164, 53.026758], [14.368555, 53.105566], [14.410938, 53.199023], [14.412305, 53.216748], [14.414551, 53.283496], [14.29873, 53.556445], [14.279883, 53.624756], [14.266113, 53.707129], [14.258887, 53.729639], [14.487598, 53.671875], [14.583496, 53.639355], [14.571582, 53.675879], [14.552148, 53.707324], [14.564941, 53.753516], [14.558398, 53.823193], [14.350879, 53.85874], [14.213672, 53.870752], [14.198242, 53.919043], [14.211426, 53.950342], [14.249316, 53.931934], [14.38418, 53.924707], [14.715723, 54.018311], [15.288379, 54.139893], [15.9, 54.253955], [16.042773, 54.266357], [16.186328, 54.290381], [16.239355, 54.333057], [16.292285, 54.361621], [16.375586, 54.436865], [16.559766, 54.553809], [16.885449, 54.596387], [17.007031, 54.651855], [17.261914, 54.729541], [17.842969, 54.816699], [18.085645, 54.83584], [18.323438, 54.838184], [18.535156, 54.769434], [18.759277, 54.68457], [18.799609, 54.63335], [18.67832, 54.665283], [18.501563, 54.741504], [18.43623, 54.744727], [18.587109, 54.512891], [18.669629, 54.430908], [18.836426, 54.36958], [18.97627, 54.348926], [19.407129, 54.386084], [19.560156, 54.434619], [19.604395, 54.45918], [19.644238, 54.44707], [19.924316, 54.433984], [20.208203, 54.420752], [20.664746, 54.406641], [21.140527, 54.391797], [21.63418, 54.376465], [22.168457, 54.359863], [22.731836, 54.350098], [22.766211, 54.356787], [22.82373, 54.395801], [22.893945, 54.390527], [22.976758, 54.366357], [23.015527, 54.34834], [23.031934, 54.327881], [23.042188, 54.304199], [23.0875, 54.299463], [23.170313, 54.281445], [23.282324, 54.240332], [23.370117, 54.200488], [23.453613, 54.143457], [23.481348, 54.079004], [23.483008, 54.005957], [23.477637, 53.958936], [23.484668, 53.939795], [23.598926, 53.599219], [23.789258, 53.270947], [23.85918, 53.112109], [23.887109, 53.027539], [23.909375, 52.904883], [23.916309, 52.81875], [23.91543, 52.770264], [23.90127, 52.703613], [23.844727, 52.664209], [23.47959, 52.551562], [23.410938, 52.516211], [23.30332, 52.428369], [23.204102, 52.337891], [23.18125, 52.306982], [23.175098, 52.286621], [23.196973, 52.256934], [23.327148, 52.208447], [23.458398, 52.169531], [23.501172, 52.140381], [23.597949, 52.103076], [23.633301, 52.06958], [23.652441, 52.040381], [23.651074, 51.972998], [23.607422, 51.879785], [23.625684, 51.809326], [23.581348, 51.762402], [23.544824, 51.710254], [23.539648, 51.618896], [23.605273, 51.51792]]]}}, {"type": "Feature", "properties": {"ADM0_A3": "NLD", "NAME": "Netherlands"}, "geometry": {"type": "MultiPolygon", "coordinates": [[[[5.993945, 50.750439], [5.892461, 50.752557], [5.797363, 50.754541], [5.74707, 50.75957], [5.693652, 50.774658], [5.693555, 50.774756], [5.669141, 50.805957], [5.639453, 50.843604], [5.647559, 50.86665], [5.736621, 50.932129], [5.75, 50.950244], [5.74082, 50.959912], [5.749805, 50.98877], [5.818262, 51.086426], [5.827148, 51.125635], [5.796484, 51.153076], [5.752344, 51.169482], [5.608789, 51.198437], [5.54043, 51.239307], [5.508789, 51.275], [5.476855, 51.285059], [5.429785, 51.272998], [5.31084, 51.259717], [5.21416, 51.278955], [5.099902, 51.346484], [5.073438, 51.406836], [5.059473, 51.453125], [5.030957, 51.469092], [4.992578, 51.445361], [4.943945, 51.407764], [4.848047, 51.403271], [4.820703, 51.412061], [4.816016, 51.432812], [4.810547, 51.452734], [4.78418, 51.477393], [4.755664, 51.491113], [4.633984, 51.421729], [4.58877, 51.421924], [4.531641, 51.448584], [4.503418, 51.474707], [4.440918, 51.459814], [4.384766, 51.427588], [4.404004, 51.36709], [4.37373, 51.356006], [4.304492, 51.361523], [4.226172, 51.386475], [4.138867, 51.401514], [4.006543, 51.443213], [3.821875, 51.409375], [3.693555, 51.449902], [3.586914, 51.453906], [3.520508, 51.486182], [3.448926, 51.540771], [3.499609, 51.57666], [3.548633, 51.589111], [3.743945, 51.596045], [3.886035, 51.574219], [4.141309, 51.455762], [4.205762, 51.456689], [4.274121, 51.471631], [4.239355, 51.503906], [4.175488, 51.519287], [4.080469, 51.551123], [4.004785, 51.59585], [4.182617, 51.610303], [4.158008, 51.633447], [4.13457, 51.6729], [3.946875, 51.810547], [3.978906, 51.847803], [4.026074, 51.927734], [4.084863, 51.994092], [4.131738, 52.011914], [4.208789, 52.058984], [4.37627, 52.196826], [4.482813, 52.30918], [4.562109, 52.442578], [4.67832, 52.809766], [4.712695, 52.872119], [4.76875, 52.941309], [4.839063, 52.928271], [4.887988, 52.90835], [5.06123, 52.960645], [5.358398, 53.096484], [5.445996, 53.214062], [5.532031, 53.268701], [5.873535, 53.375195], [6.062207, 53.40708], [6.353223, 53.415283], [6.563574, 53.434277], [6.816211, 53.441162], [6.912402, 53.375391], [6.968164, 53.327295], [7.058008, 53.300586], [7.197266, 53.282275], [7.188965, 53.187207], [7.189941, 52.999512], [7.179492, 52.966211], [7.11709, 52.887012], [7.050879, 52.744775], [7.033008, 52.651367], [7.013184, 52.633545], [6.748438, 52.634082], [6.710742, 52.617871], [6.705371, 52.597656], [6.71875, 52.573584], [6.712402, 52.549658], [6.691602, 52.530176], [6.70293, 52.499219], [6.748828, 52.464014], [6.83252, 52.442285], [6.92207, 52.440283], [6.968164, 52.444092], [7.001855, 52.418994], [7.035156, 52.380225], [7.032617, 52.331494], [7.019629, 52.266016], [6.977246, 52.205518], [6.855078, 52.135791], [6.800391, 52.11123], [6.749023, 52.098682], [6.724512, 52.080225], [6.712988, 52.056885], [6.715625, 52.036182], [6.802441, 51.980176], [6.800391, 51.967383], [6.775195, 51.938281], [6.741797, 51.910889], [6.517578, 51.853955], [6.425, 51.858398], [6.372168, 51.830029], [6.355664, 51.824658], [6.29707, 51.850732], [6.166504, 51.880762], [6.117188, 51.87041], [6.089844, 51.853955], [6.007617, 51.833984], [5.94873, 51.802686], [5.948535, 51.762402], [6.052734, 51.658252], [6.089355, 51.637793], [6.091113, 51.598926], [6.141602, 51.550098], [6.193262, 51.488916], [6.198828, 51.45], [6.192871, 51.410596], [6.166211, 51.354834], [6.075879, 51.224121], [6.074805, 51.199023], [6.082422, 51.17998], [6.113379, 51.174707], [6.136914, 51.164844], [6.12998, 51.147412], [5.961035, 51.056689], [5.939258, 51.04082], [5.868359, 51.045312], [5.85752, 51.030127], [5.867188, 51.005664], [5.894727, 50.984229], [5.955078, 50.972949], [6.006836, 50.949951], [6.048438, 50.904883], [5.993945, 50.750439]]], [[[4.226172, 51.386475], [4.211426, 51.34873], [4.172559, 51.30708], [4.040039, 51.24707], [3.902051, 51.207666], [3.830762, 51.212598], [3.781934, 51.233203], [3.755664, 51.254834], [3.681836, 51.275684], [3.580273, 51.286182], [3.51709, 51.263623], [3.471973, 51.242236], [3.43252, 51.245752], [3.402832, 51.263623], [3.380078, 51.291113], [3.350098, 51.377686], [3.425781, 51.393506], [3.589453, 51.399414], [3.716504, 51.369141], [3.883398, 51.354492], [4.011035, 51.395947], [4.111523, 51.360645], [4.226172, 51.386475]]], [[[6.333398, 53.510742], [6.193262, 53.476807], [6.159277, 53.483936], [6.167676, 53.49375], [6.290918, 53.51499], [6.333398, 53.510742]]], [[[5.929297, 53.458838], [5.732031, 53.442627], [5.665332, 53.454883], [5.654297, 53.466504], [5.708105, 53.473389], [5.87627, 53.475098], [5.928223, 53.46499], [5.929297, 53.458838]]], [[[5.108594, 53.308008], [4.92373, 53.23457], [4.90791, 53.24624], [5.027051, 53.310205], [5.108594, 53.308008]]], [[[5.325781, 53.385742], [5.232617, 53.377783], [5.190234, 53.391797], [5.415137, 53.431445], [5.557422, 53.443555], [5.582617, 53.438086], [5.325781, 53.385742]]], [[[4.886133, 53.070703], [4.787109, 52.999805], [4.726758, 53.019629], [4.70918, 53.036035], [4.739844, 53.091309], [4.886426, 53.183301], [4.886133, 53.070703]]], [[[3.949121, 51.739453], [4.046777, 51.684912], [4.067578, 51.66748], [4.075098, 51.648779], [3.950977, 51.627051], [3.819043, 51.693994], [3.731836, 51.678223], [3.699023, 51.709912], [3.698535, 51.729687], [3.789062, 51.746436], [3.949121, 51.739453]]], [[[6.734766, 53.58252], [6.64209, 53.579199], [6.668555, 53.605664], [6.75459, 53.625488], [6.800879, 53.625488], [6.734766, 53.58252]]], [[[-68.205811, 12.14458], [-68.254346, 12.03208], [-68.282227, 12.082275], [-68.287256, 12.171729], [-68.307129, 12.206738], [-68.348437, 12.228076], [-68.371094, 12.25752], [-68.369238, 12.301953], [-68.219482, 12.23125], [-68.205811, 12.14458]]], [[[-62.9375, 17.495654], [-62.961719, 17.475049], [-62.983105, 17.476904], [-62.997168, 17.496826], [-62.999609, 17.530371], [-62.979346, 17.521191], [-62.971777, 17.516064], [-62.96543, 17.509277], [-62.9375, 17.495654]]], [[[-63.232666, 17.623145], [-63.241602, 17.61958], [-63.254492, 17.628662], [-63.252148, 17.645264], [-63.24165, 17.651807], [-63.233496, 17.647217], [-63.226904, 17.634131], [-63.232666, 17.623145]]]]}}, {"type": "Feature", "properties": {"ADM0_A3": "ITA", "NAME": "Italy"}, "geometry": {"type": "MultiPolygon", "coordinates": [[[[7.021094, 45.925781], [7.055762, 45.903809], [7.129004, 45.88042], [7.32793, 45.912354], [7.451563, 45.944434], [7.538574, 45.978174], [7.592578, 45.972217], [7.787891, 45.921826], [7.852344, 45.947461], [7.993164, 46.015918], [8.014258, 46.051904], [8.125195, 46.160937], [8.127246, 46.187598], [8.081543, 46.256006], [8.095703, 46.271045], [8.231934, 46.341211], [8.298535, 46.403418], [8.370703, 46.445117], [8.422559, 46.446045], [8.436816, 46.431885], [8.442969, 46.402783], [8.438477, 46.282861], [8.458398, 46.245898], [8.56543, 46.159814], [8.641699, 46.110791], [8.818555, 46.077148], [8.826758, 46.061035], [8.778027, 45.996191], [8.885156, 45.918701], [8.904297, 45.861963], [8.953711, 45.830029], [9.02373, 45.845703], [9.04668, 45.875586], [9.019141, 45.928125], [8.998926, 45.983105], [9.003027, 46.014893], [9.022363, 46.051465], [9.070996, 46.102441], [9.203418, 46.219238], [9.251074, 46.286768], [9.259766, 46.39126], [9.260156, 46.475195], [9.304395, 46.495557], [9.399316, 46.480664], [9.427637, 46.482324], [9.440625, 46.430811], [9.481055, 46.348779], [9.528711, 46.306201], [9.57959, 46.296094], [9.639453, 46.295898], [9.787793, 46.346045], [9.884473, 46.367773], [9.939258, 46.361816], [9.97168, 46.327686], [10.041016, 46.238086], [10.080566, 46.227979], [10.12832, 46.238232], [10.145215, 46.253516], [10.129883, 46.287988], [10.109668, 46.362842], [10.081934, 46.420752], [10.045605, 46.4479], [10.038281, 46.483203], [10.06123, 46.546777], [10.087012, 46.599902], [10.1375, 46.614355], [10.195508, 46.621094], [10.272266, 46.564844], [10.363086, 46.54707], [10.430664, 46.550049], [10.44248, 46.582861], [10.438281, 46.618848], [10.397949, 46.665039], [10.406055, 46.734863], [10.452832, 46.864941], [10.479395, 46.855127], [10.579785, 46.853711], [10.689258, 46.846387], [10.759766, 46.793311], [10.828906, 46.775244], [10.927344, 46.769482], [10.993262, 46.777002], [11.025098, 46.796973], [11.063477, 46.859131], [11.133887, 46.936182], [11.244434, 46.975684], [11.433203, 46.983057], [11.527539, 46.997412], [11.625488, 46.996582], [11.699414, 46.984668], [11.775684, 46.986084], [11.969531, 47.039697], [12.169434, 47.082129], [12.197168, 47.075], [12.20127, 47.060889], [12.165527, 47.028174], [12.130762, 46.984766], [12.154102, 46.935254], [12.267969, 46.835889], [12.330078, 46.759814], [12.388281, 46.702637], [12.479199, 46.67251], [12.598633, 46.654102], [12.699805, 46.647461], [12.805566, 46.625879], [13.16875, 46.572656], [13.351562, 46.55791], [13.490039, 46.555566], [13.7, 46.520264], [13.679688, 46.462891], [13.637109, 46.448535], [13.563281, 46.415088], [13.478516, 46.369189], [13.399512, 46.317529], [13.378223, 46.261621], [13.399609, 46.224951], [13.420996, 46.212305], [13.449805, 46.223535], [13.491797, 46.216602], [13.544727, 46.196582], [13.63252, 46.177051], [13.634961, 46.157764], [13.616602, 46.133105], [13.548047, 46.089111], [13.486426, 46.039551], [13.480273, 46.009229], [13.487695, 45.987109], [13.50918, 45.973779], [13.600586, 45.979785], [13.613965, 45.96167], [13.569629, 45.834131], [13.583398, 45.812354], [13.663477, 45.791992], [13.72168, 45.761279], [13.831152, 45.68042], [13.874707, 45.614844], [13.844727, 45.592871], [13.775977, 45.581982], [13.719824, 45.587598], [13.783301, 45.627246], [13.62832, 45.770947], [13.558203, 45.770703], [13.465137, 45.709961], [13.206348, 45.771387], [13.156738, 45.746582], [13.120117, 45.6979], [13.030273, 45.6375], [12.903027, 45.610791], [12.76123, 45.544287], [12.611719, 45.497217], [12.497559, 45.46167], [12.432129, 45.46792], [12.536133, 45.544922], [12.491797, 45.546289], [12.353809, 45.491992], [12.274316, 45.446045], [12.248828, 45.368848], [12.225684, 45.241504], [12.286328, 45.207715], [12.39248, 45.039795], [12.523438, 44.967969], [12.497949, 44.899414], [12.463574, 44.845215], [12.384473, 44.79834], [12.319043, 44.833105], [12.278906, 44.832227], [12.24834, 44.72251], [12.30498, 44.429443], [12.396289, 44.223877], [12.486816, 44.134229], [12.691113, 43.994727], [12.907031, 43.921191], [13.295313, 43.686084], [13.508203, 43.61167], [13.56416, 43.571289], [13.693262, 43.389893], [13.804688, 43.180371], [13.924902, 42.851562], [14.010449, 42.689551], [14.182715, 42.506445], [14.540723, 42.244287], [14.866113, 42.052539], [15.16875, 41.934033], [15.40498, 41.913232], [15.964063, 41.939453], [16.061523, 41.928125], [16.164648, 41.896191], [16.18916, 41.814014], [16.15127, 41.758496], [16.033691, 41.700781], [15.91377, 41.62085], [15.900488, 41.512061], [16.012598, 41.4354], [16.551855, 41.232031], [17.103418, 41.062158], [17.275195, 40.975439], [17.474219, 40.840576], [17.95498, 40.655176], [18.036133, 40.564941], [18.328223, 40.37085], [18.460645, 40.221045], [18.48584, 40.104834], [18.422559, 39.986865], [18.393457, 39.903613], [18.34375, 39.821387], [18.219336, 39.852539], [18.07793, 39.936963], [17.865039, 40.280176], [17.476172, 40.314941], [17.395801, 40.340234], [17.257715, 40.399072], [17.249414, 40.437891], [17.215332, 40.486426], [17.17998, 40.502783], [17.03125, 40.513477], [16.928223, 40.458057], [16.807031, 40.326465], [16.669629, 40.137207], [16.52998, 39.859668], [16.521875, 39.747559], [16.597754, 39.638916], [16.824316, 39.57832], [16.999219, 39.481592], [17.114551, 39.380615], [17.122949, 39.136572], [17.174609, 38.998096], [17.098535, 38.919336], [16.951465, 38.939795], [16.755469, 38.889697], [16.616699, 38.800146], [16.558984, 38.714795], [16.574219, 38.493555], [16.545605, 38.409082], [16.282422, 38.249561], [16.144141, 38.086377], [16.109766, 38.018652], [16.056836, 37.941846], [15.724512, 37.939111], [15.645801, 38.034229], [15.643066, 38.175391], [15.700195, 38.262305], [15.822363, 38.302979], [15.904785, 38.483496], [15.878906, 38.613916], [15.926953, 38.671729], [15.972363, 38.712598], [16.065527, 38.736426], [16.196777, 38.759229], [16.209961, 38.941113], [16.107422, 39.023828], [16.071484, 39.139453], [16.023633, 39.353613], [15.854395, 39.626514], [15.763672, 39.870068], [15.692773, 39.990186], [15.585156, 40.052832], [15.390918, 40.052148], [15.294531, 40.07002], [14.950879, 40.239014], [14.926953, 40.264746], [14.929102, 40.30957], [14.986133, 40.37749], [14.947656, 40.469336], [14.906934, 40.556055], [14.839551, 40.62998], [14.765723, 40.668408], [14.61123, 40.644775], [14.556934, 40.626416], [14.459375, 40.632715], [14.382715, 40.599854], [14.339941, 40.598828], [14.460547, 40.728711], [14.428125, 40.759326], [14.308887, 40.812646], [14.147168, 40.820703], [14.102344, 40.827148], [14.075879, 40.793945], [14.044336, 40.812256], [14.047656, 40.870312], [13.859766, 41.12998], [13.733398, 41.235645], [13.669727, 41.254492], [13.554785, 41.232178], [13.361914, 41.278516], [13.246875, 41.288867], [13.183398, 41.277686], [13.088672, 41.243848], [13.041016, 41.266211], [13.024219, 41.300928], [12.849219, 41.40874], [12.630859, 41.469678], [12.205664, 41.812646], [12.075293, 41.940869], [11.807031, 42.082031], [11.637305, 42.287549], [11.498438, 42.362939], [11.296289, 42.423291], [11.249707, 42.415723], [11.188867, 42.393115], [11.141211, 42.389893], [11.103223, 42.416602], [11.141797, 42.444092], [11.184766, 42.456592], [11.167773, 42.535156], [10.937793, 42.738721], [10.803125, 42.804297], [10.765137, 42.844678], [10.737109, 42.899951], [10.708398, 42.936328], [10.644629, 42.957178], [10.590234, 42.953613], [10.514844, 42.967529], [10.517285, 43.065137], [10.532324, 43.140137], [10.520801, 43.203809], [10.447559, 43.371191], [10.320508, 43.513086], [10.245801, 43.8521], [10.188086, 43.94751], [10.047656, 44.019971], [9.730859, 44.101172], [9.289355, 44.319238], [9.195996, 44.322998], [8.930371, 44.407764], [8.76582, 44.422314], [8.551953, 44.346143], [8.292383, 44.136523], [8.081641, 43.918945], [8.00498, 43.876758], [7.733301, 43.802588], [7.493164, 43.767139], [7.490527, 43.822949], [7.482031, 43.864893], [7.522656, 43.911084], [7.589648, 43.96543], [7.651465, 44.033643], [7.677148, 44.083154], [7.665039, 44.116016], [7.637207, 44.164844], [7.599414, 44.168359], [7.370898, 44.127393], [7.318555, 44.137988], [7.149414, 44.201709], [6.967285, 44.280029], [6.900195, 44.335742], [6.874805, 44.392041], [6.893848, 44.428174], [6.878613, 44.463281], [6.842969, 44.510693], [6.875195, 44.564551], [6.931934, 44.631641], [6.960352, 44.677148], [7.00791, 44.688965], [7.030664, 44.716699], [6.992676, 44.827295], [6.972852, 44.84502], [6.939844, 44.85874], [6.889355, 44.860303], [6.801074, 44.883154], [6.738184, 44.921387], [6.724707, 44.972998], [6.691406, 45.022607], [6.634766, 45.068164], [6.627734, 45.117969], [6.692285, 45.144287], [6.780371, 45.145312], [6.842285, 45.135645], [6.98125, 45.215576], [7.032422, 45.222607], [7.07832, 45.239941], [7.116797, 45.349023], [7.146387, 45.381738], [7.153418, 45.400928], [7.126074, 45.423682], [7.013672, 45.500488], [6.962402, 45.580566], [6.881445, 45.670361], [6.80625, 45.71001], [6.790918, 45.740869], [6.78916, 45.780078], [6.804492, 45.814551], [6.94082, 45.868359], [7.021094, 45.925781]], [[12.43916, 41.898389], [12.438379, 41.906201], [12.430566, 41.905469], [12.427539, 41.900732], [12.430566, 41.897559], [12.43916, 41.898389]], [[12.485254, 43.901416], [12.514648, 43.952979], [12.503711, 43.989746], [12.441113, 43.982422], [12.396875, 43.93457], [12.426367, 43.894092], [12.485254, 43.901416]]], [[[10.395117, 42.858154], [10.42832, 42.819189], [10.432227, 42.796582], [10.409961, 42.770996], [10.419336, 42.713184], [10.335645, 42.761133], [10.208984, 42.736914], [10.13125, 42.742041], [10.109766, 42.785059], [10.127539, 42.810303], [10.248242, 42.815771], [10.285742, 42.828076], [10.358984, 42.822314], [10.395117, 42.858154]]], [[[13.938281, 40.705615], [13.893652, 40.696973], [13.867676, 40.70874], [13.853516, 40.724072], [13.871191, 40.761816], [13.962109, 40.739404], [13.96084, 40.718164], [13.938281, 40.705615]]], [[[12.05127, 36.757031], [12.00332, 36.745996], [11.940625, 36.780371], [11.936426, 36.828613], [11.948047, 36.843066], [12.024219, 36.820947], [12.048047, 36.776367], [12.05127, 36.757031]]], [[[15.576563, 38.220312], [15.508887, 38.106641], [15.475684, 38.062939], [15.234473, 37.784814], [15.206836, 37.720557], [15.189844, 37.650732], [15.164844, 37.589551], [15.131055, 37.531885], [15.099512, 37.458594], [15.105664, 37.375488], [15.116992, 37.334717], [15.145996, 37.308008], [15.193652, 37.282861], [15.230273, 37.244336], [15.174121, 37.20918], [15.236035, 37.138721], [15.288672, 37.096924], [15.295703, 37.055176], [15.294531, 37.013281], [15.185156, 36.934814], [15.142383, 36.891602], [15.11582, 36.839258], [15.104297, 36.785254], [15.116309, 36.736475], [15.112598, 36.687842], [15.002441, 36.693896], [14.889648, 36.723535], [14.775977, 36.7104], [14.614355, 36.766602], [14.555469, 36.776758], [14.501855, 36.798682], [14.367285, 36.972852], [14.259082, 37.046436], [14.142969, 37.103662], [14.024316, 37.107129], [13.905469, 37.100635], [13.800586, 37.135889], [13.587109, 37.25415], [13.360938, 37.34873], [13.264941, 37.410352], [13.221094, 37.451807], [13.169922, 37.479297], [13.040332, 37.506543], [12.924121, 37.570508], [12.871191, 37.575195], [12.757324, 37.567383], [12.699023, 37.571826], [12.640234, 37.594336], [12.526758, 37.669531], [12.454395, 37.773779], [12.435547, 37.819775], [12.486816, 37.938721], [12.547656, 38.05293], [12.60166, 38.084961], [12.664355, 38.10791], [12.702344, 38.141699], [12.734375, 38.183057], [12.850684, 38.063721], [12.902734, 38.034863], [12.955469, 38.041309], [13.049023, 38.084082], [13.056836, 38.130908], [13.159961, 38.190332], [13.291113, 38.191455], [13.35166, 38.180518], [13.383496, 38.126807], [13.433496, 38.110254], [13.491309, 38.103125], [13.681543, 38.000732], [13.734863, 37.984033], [13.788867, 37.981201], [13.936621, 38.02417], [14.05, 38.040527], [14.287695, 38.016846], [14.416211, 38.042578], [14.505957, 38.045508], [14.636719, 38.085059], [14.737207, 38.150781], [14.789648, 38.166992], [14.845898, 38.17168], [14.981934, 38.167578], [15.11875, 38.152734], [15.176074, 38.168066], [15.224023, 38.211035], [15.27959, 38.230371], [15.340723, 38.217334], [15.49873, 38.290869], [15.568359, 38.295898], [15.634668, 38.267578], [15.576563, 38.220312]]], [[[9.632031, 40.882031], [9.682031, 40.818115], [9.794336, 40.556201], [9.805273, 40.499561], [9.782813, 40.441504], [9.754199, 40.400293], [9.642969, 40.268408], [9.659473, 40.159229], [9.700781, 40.091797], [9.706738, 40.017041], [9.686035, 39.924365], [9.616992, 39.354395], [9.583594, 39.253564], [9.5625, 39.166016], [9.486328, 39.139551], [9.388086, 39.167529], [9.26416, 39.216797], [9.206934, 39.213818], [9.149316, 39.196973], [9.101758, 39.211279], [9.056348, 39.23916], [9.022656, 39.043262], [8.966602, 38.963721], [8.881348, 38.912891], [8.801172, 38.909668], [8.718555, 38.926709], [8.648535, 38.926562], [8.59541, 38.964307], [8.55332, 39.030322], [8.48623, 39.110498], [8.418164, 39.205713], [8.410742, 39.291797], [8.399121, 39.481592], [8.418652, 39.523047], [8.44707, 39.562793], [8.461035, 39.647705], [8.451172, 39.72168], [8.471094, 39.748096], [8.510742, 39.72168], [8.540527, 39.731592], [8.538672, 39.769678], [8.547754, 39.839209], [8.495898, 39.897461], [8.407813, 39.917236], [8.399316, 39.978174], [8.408594, 40.037646], [8.455078, 40.077588], [8.470801, 40.130713], [8.471289, 40.292676], [8.40918, 40.352344], [8.385352, 40.442676], [8.353223, 40.500537], [8.295508, 40.558643], [8.230273, 40.605957], [8.189941, 40.651611], [8.180859, 40.771045], [8.203809, 40.870703], [8.224219, 40.91333], [8.245215, 40.907031], [8.310156, 40.85752], [8.363281, 40.846338], [8.468457, 40.834326], [8.571875, 40.850195], [8.698926, 40.895264], [8.821191, 40.949902], [8.998145, 41.110352], [9.107227, 41.14292], [9.163086, 41.185156], [9.182129, 41.242188], [9.228418, 41.25708], [9.283008, 41.20166], [9.350781, 41.195898], [9.455176, 41.150146], [9.500195, 41.106348], [9.53877, 41.053662], [9.575684, 41.030518], [9.615332, 41.017285], [9.621191, 41.004883], [9.589746, 40.99248], [9.553711, 40.932129], [9.574023, 40.914746], [9.632031, 40.882031]]], [[[8.478906, 39.067529], [8.421484, 38.968652], [8.360938, 39.038672], [8.358594, 39.098779], [8.366797, 39.115918], [8.440625, 39.090625], [8.478906, 39.067529]]], [[[8.286035, 41.039844], [8.252734, 40.994141], [8.205664, 40.997461], [8.224023, 41.031299], [8.267383, 41.099121], [8.320215, 41.121875], [8.34375, 41.101611], [8.318945, 41.062744], [8.286035, 41.039844]]]]}}, {"type": "Feature", "properties": {"ADM0_A3": "DEU", "NAME": "Germany"}, "geometry": {"type": "MultiPolygon", "coordinates": [[[[9.524023, 47.524219], [9.35, 47.598926], [9.182813, 47.670703], [9.127539, 47.670703], [8.881152, 47.656396], [8.874023, 47.662695], [8.831152, 47.703613], [8.793066, 47.716553], [8.770117, 47.709912], [8.754785, 47.698047], [8.72832, 47.700049], [8.617871, 47.766113], [8.572656, 47.775635], [8.509863, 47.766895], [8.435742, 47.731348], [8.403418, 47.687793], [8.413281, 47.662695], [8.451758, 47.651807], [8.552344, 47.659131], [8.56709, 47.651904], [8.570508, 47.637793], [8.559473, 47.624023], [8.477637, 47.612695], [8.454004, 47.596191], [8.430078, 47.592139], [8.414746, 47.5896], [8.327832, 47.606934], [8.198242, 47.606934], [8.09375, 47.576172], [7.927051, 47.563867], [7.698047, 47.569873], [7.615625, 47.592725], [7.56543, 47.606543], [7.529395, 47.673877], [7.538574, 47.773633], [7.593262, 47.905664], [7.608496, 48.002588], [7.58418, 48.064307], [7.616602, 48.156787], [7.705664, 48.280029], [7.765137, 48.41001], [7.794824, 48.546826], [7.837988, 48.636035], [7.922754, 48.698535], [8.124023, 48.873291], [8.140332, 48.886426], [8.134863, 48.973584], [8.080664, 48.985889], [8.00127, 49.010937], [7.799219, 49.041895], [7.610938, 49.061768], [7.525488, 49.086377], [7.450586, 49.152197], [7.404199, 49.153076], [7.313379, 49.129541], [7.199902, 49.113623], [7.117383, 49.127539], [7.065723, 49.124854], [7.036719, 49.112695], [7.022168, 49.123437], [7.001465, 49.179883], [6.958301, 49.194629], [6.891211, 49.20752], [6.849512, 49.201953], [6.820703, 49.173926], [6.77627, 49.15415], [6.735449, 49.160596], [6.607617, 49.290869], [6.574707, 49.319678], [6.566309, 49.346191], [6.534277, 49.394678], [6.458105, 49.442871], [6.382227, 49.458154], [6.344336, 49.452734], [6.348438, 49.512695], [6.37832, 49.599609], [6.406738, 49.644971], [6.444629, 49.682031], [6.484766, 49.707812], [6.49375, 49.754395], [6.487305, 49.798486], [6.440918, 49.805322], [6.324609, 49.837891], [6.256055, 49.872168], [6.204883, 49.915137], [6.138184, 49.974316], [6.109766, 50.034375], [6.108301, 50.094238], [6.116504, 50.120996], [6.121289, 50.139355], [6.175098, 50.232666], [6.364453, 50.316162], [6.343652, 50.400244], [6.340918, 50.451758], [6.294922, 50.485498], [6.203027, 50.499121], [6.178711, 50.52251], [6.168457, 50.545361], [6.235938, 50.59668], [6.154492, 50.637256], [6.119434, 50.679248], [6.005957, 50.732227], [5.993945, 50.750439], [6.048438, 50.904883], [6.006836, 50.949951], [5.955078, 50.972949], [5.894727, 50.984229], [5.867188, 51.005664], [5.85752, 51.030127], [5.868359, 51.045312], [5.939258, 51.04082], [5.961035, 51.056689], [6.12998, 51.147412], [6.136914, 51.164844], [6.113379, 51.174707], [6.082422, 51.17998], [6.074805, 51.199023], [6.075879, 51.224121], [6.166211, 51.354834], [6.192871, 51.410596], [6.198828, 51.45], [6.193262, 51.488916], [6.141602, 51.550098], [6.091113, 51.598926], [6.089355, 51.637793], [6.052734, 51.658252], [5.948535, 51.762402], [5.94873, 51.802686], [6.007617, 51.833984], [6.089844, 51.853955], [6.117188, 51.87041], [6.166504, 51.880762], [6.29707, 51.850732], [6.355664, 51.824658], [6.372168, 51.830029], [6.425, 51.858398], [6.517578, 51.853955], [6.741797, 51.910889], [6.775195, 51.938281], [6.800391, 51.967383], [6.802441, 51.980176], [6.715625, 52.036182], [6.712988, 52.056885], [6.724512, 52.080225], [6.749023, 52.098682], [6.800391, 52.11123], [6.855078, 52.135791], [6.977246, 52.205518], [7.019629, 52.266016], [7.032617, 52.331494], [7.035156, 52.380225], [7.001855, 52.418994], [6.968164, 52.444092], [6.92207, 52.440283], [6.83252, 52.442285], [6.748828, 52.464014], [6.70293, 52.499219], [6.691602, 52.530176], [6.712402, 52.549658], [6.71875, 52.573584], [6.705371, 52.597656], [6.710742, 52.617871], [6.748438, 52.634082], [7.013184, 52.633545], [7.033008, 52.651367], [7.050879, 52.744775], [7.11709, 52.887012], [7.179492, 52.966211], [7.189941, 52.999512], [7.188965, 53.187207], [7.197266, 53.282275], [7.152051, 53.326953], [7.05332, 53.37583], [7.074316, 53.477637], [7.107129, 53.556982], [7.206445, 53.654541], [7.285254, 53.681348], [7.629199, 53.697266], [8.009277, 53.690723], [8.16709, 53.543408], [8.108496, 53.467676], [8.200781, 53.432422], [8.245215, 53.445312], [8.279004, 53.511182], [8.301563, 53.584131], [8.333887, 53.606201], [8.451367, 53.551709], [8.492676, 53.514355], [8.495215, 53.394238], [8.538477, 53.556885], [8.50625, 53.670752], [8.528418, 53.781104], [8.575586, 53.838477], [8.618945, 53.875], [8.897754, 53.835693], [9.205566, 53.855957], [9.321973, 53.813477], [9.585352, 53.600488], [9.673145, 53.565625], [9.783984, 53.554639], [9.63125, 53.600195], [9.312012, 53.859131], [9.216406, 53.891211], [9.069629, 53.900928], [8.978125, 53.926221], [8.92041, 53.965332], [8.903516, 54.000293], [8.906641, 54.260791], [8.851562, 54.299561], [8.780371, 54.313037], [8.736035, 54.295215], [8.644922, 54.294971], [8.625781, 54.353955], [8.648047, 54.397656], [8.831152, 54.427539], [8.951855, 54.467578], [8.957227, 54.53833], [8.880957, 54.593945], [8.789648, 54.695947], [8.682324, 54.791846], [8.670313, 54.903418], [8.670703, 54.90332], [8.857227, 54.901123], [8.90293, 54.896924], [9.18584, 54.844678], [9.25498, 54.808008], [9.341992, 54.806299], [9.49873, 54.84043], [9.61582, 54.85542], [9.66123, 54.834375], [9.725, 54.825537], [9.739746, 54.825537], [9.745898, 54.807178], [9.892285, 54.780615], [9.953809, 54.738281], [10.022168, 54.673926], [10.028809, 54.581299], [9.941309, 54.514648], [9.868652, 54.472461], [10.143457, 54.488428], [10.170801, 54.450195], [10.212402, 54.408936], [10.360449, 54.43833], [10.731543, 54.31626], [10.955957, 54.375684], [11.013379, 54.37915], [11.064355, 54.280518], [11.008594, 54.181152], [10.810742, 54.075146], [10.85459, 54.009814], [10.917773, 53.995312], [11.104297, 54.00918], [11.399609, 53.944629], [11.461133, 53.964746], [11.700586, 54.113525], [11.796289, 54.145459], [12.111328, 54.168311], [12.168652, 54.225879], [12.296289, 54.283789], [12.378516, 54.347021], [12.575391, 54.467383], [12.779102, 54.445703], [12.898047, 54.422656], [13.028613, 54.411035], [13.147461, 54.282715], [13.448047, 54.140869], [13.724219, 54.153223], [13.822266, 54.019043], [13.865527, 53.853369], [13.950391, 53.801367], [14.025, 53.767432], [14.25, 53.731885], [14.258887, 53.729639], [14.266113, 53.707129], [14.279883, 53.624756], [14.29873, 53.556445], [14.414551, 53.283496], [14.412305, 53.216748], [14.410938, 53.199023], [14.368555, 53.105566], [14.293164, 53.026758], [14.193652, 52.982324], [14.138867, 52.932861], [14.128613, 52.878223], [14.253711, 52.78252], [14.514063, 52.645605], [14.619434, 52.528516], [14.569727, 52.431104], [14.55459, 52.359668], [14.573926, 52.31416], [14.615625, 52.277637], [14.679883, 52.25], [14.705371, 52.207471], [14.692383, 52.150049], [14.70459, 52.110205], [14.752539, 52.081836], [14.748145, 52.070801], [14.724805, 52.030859], [14.692969, 51.958008], [14.674902, 51.904834], [14.60166, 51.832373], [14.623926, 51.770801], [14.681348, 51.698193], [14.724902, 51.661719], [14.738672, 51.627148], [14.710938, 51.544922], [14.724707, 51.523877], [14.905957, 51.46333], [14.935547, 51.435352], [14.953125, 51.377148], [15.016602, 51.252734], [14.963867, 51.095117], [14.91748, 51.00874], [14.814258, 50.871631], [14.809375, 50.858984], [14.797461, 50.842334], [14.766504, 50.818311], [14.72334, 50.814697], [14.658203, 50.832617], [14.613574, 50.855566], [14.623828, 50.914746], [14.595215, 50.918604], [14.559668, 50.954932], [14.545703, 50.993945], [14.507324, 51.009863], [14.367285, 51.02627], [14.319727, 51.037793], [14.283203, 51.029492], [14.255859, 51.001855], [14.27334, 50.976904], [14.299414, 50.952588], [14.377051, 50.914062], [14.369043, 50.89873], [14.201758, 50.86123], [14.096484, 50.822754], [13.998438, 50.801123], [13.898535, 50.761279], [13.701367, 50.716504], [13.556738, 50.704639], [13.526563, 50.692822], [13.472559, 50.616943], [13.436133, 50.601074], [13.401172, 50.609326], [13.374609, 50.621729], [13.341016, 50.611426], [13.306055, 50.586328], [13.269531, 50.576416], [13.237695, 50.576758], [13.181152, 50.510498], [13.016406, 50.490381], [12.99707, 50.456055], [12.966797, 50.416211], [12.942676, 50.406445], [12.868262, 50.422217], [12.76543, 50.430957], [12.706445, 50.409131], [12.635547, 50.39707], [12.549023, 50.393408], [12.452637, 50.349805], [12.358594, 50.273242], [12.305664, 50.205713], [12.277344, 50.181445], [12.231152, 50.244873], [12.174805, 50.288379], [12.134863, 50.310937], [12.099219, 50.310986], [12.089844, 50.301758], [12.089746, 50.268555], [12.127832, 50.213428], [12.175, 50.17583], [12.18252, 50.148047], [12.207813, 50.09751], [12.276465, 50.042334], [12.38418, 49.998584], [12.457617, 49.955518], [12.512012, 49.895801], [12.5125, 49.877441], [12.497559, 49.853076], [12.471875, 49.830078], [12.450195, 49.800146], [12.390527, 49.739648], [12.408203, 49.713184], [12.457031, 49.679785], [12.500293, 49.639697], [12.555762, 49.574854], [12.632031, 49.46123], [12.681152, 49.414502], [12.747852, 49.366211], [12.813379, 49.329346], [12.916699, 49.330469], [13.02373, 49.260107], [13.140527, 49.15835], [13.227832, 49.11167], [13.28877, 49.097461], [13.339063, 49.060791], [13.383691, 49.008105], [13.401172, 48.977588], [13.440723, 48.955566], [13.547656, 48.959668], [13.684961, 48.876709], [13.769922, 48.815967], [13.814746, 48.766943], [13.80293, 48.74751], [13.797461, 48.686426], [13.798828, 48.62168], [13.785352, 48.587451], [13.723926, 48.542383], [13.692188, 48.532764], [13.675195, 48.523047], [13.486621, 48.581836], [13.47168, 48.571826], [13.459863, 48.564551], [13.409375, 48.394141], [13.374609, 48.361377], [13.322852, 48.33125], [13.215234, 48.301904], [13.14043, 48.289941], [13.082129, 48.275098], [12.897461, 48.203711], [12.814258, 48.16084], [12.760352, 48.106982], [12.760059, 48.075977], [12.849902, 47.984814], [12.953516, 47.890625], [12.954199, 47.807764], [12.908301, 47.745801], [12.897656, 47.721875], [12.928125, 47.712842], [12.985547, 47.709424], [13.033594, 47.69873], [13.054102, 47.655127], [13.047949, 47.57915], [13.031543, 47.508008], [13.014355, 47.478076], [12.968066, 47.475684], [12.878906, 47.506445], [12.809375, 47.542187], [12.782813, 47.56416], [12.781152, 47.59043], [12.796191, 47.607031], [12.771387, 47.639404], [12.68584, 47.669336], [12.594238, 47.656299], [12.526563, 47.636133], [12.48291, 47.637305], [12.435742, 47.666113], [12.363184, 47.688184], [12.268359, 47.702734], [12.209277, 47.718262], [12.196875, 47.709082], [12.203809, 47.646729], [12.185645, 47.619531], [11.716797, 47.583496], [11.573926, 47.549756], [11.469922, 47.506104], [11.392969, 47.487158], [11.374121, 47.460254], [11.297949, 47.424902], [11.211914, 47.413623], [11.191211, 47.425195], [11.136035, 47.408887], [11.041992, 47.393115], [10.980859, 47.398145], [10.952148, 47.426709], [10.893945, 47.470459], [10.870605, 47.500781], [10.873047, 47.520215], [10.741602, 47.524121], [10.658691, 47.547217], [10.482813, 47.541797], [10.439453, 47.551562], [10.430371, 47.541064], [10.403906, 47.416992], [10.369141, 47.366064], [10.312793, 47.313428], [10.240625, 47.284131], [10.183008, 47.278809], [10.185742, 47.317187], [10.200293, 47.363428], [10.158789, 47.374268], [10.096484, 47.37959], [10.066309, 47.393359], [10.074219, 47.428516], [10.059863, 47.449072], [10.034082, 47.473584], [9.971582, 47.505322], [9.83916, 47.552295], [9.748926, 47.575537], [9.715137, 47.550781], [9.650586, 47.525879], [9.548926, 47.534033], [9.524023, 47.524219]]], [[[13.70918, 54.382715], [13.73418, 54.31543], [13.707324, 54.281152], [13.594922, 54.338184], [13.482031, 54.337402], [13.414551, 54.249561], [13.364355, 54.24585], [13.190039, 54.325635], [13.162109, 54.364551], [13.156348, 54.396924], [13.18125, 54.508984], [13.17666, 54.544238], [13.231445, 54.582764], [13.239941, 54.638428], [13.336816, 54.697119], [13.422754, 54.699316], [13.450098, 54.649609], [13.491211, 54.615381], [13.636035, 54.577002], [13.657617, 54.55957], [13.670703, 54.535449], [13.60332, 54.488184], [13.580469, 54.463965], [13.601855, 54.425146], [13.70918, 54.382715]]], [[[14.211426, 53.950342], [14.198242, 53.919043], [14.213672, 53.870752], [14.172168, 53.874365], [14.04834, 53.863086], [13.925781, 53.879053], [13.902148, 53.938965], [13.92168, 53.996631], [13.872461, 54.036279], [13.827148, 54.05957], [13.82041, 54.092822], [13.827734, 54.127246], [14.038867, 54.03457], [14.211426, 53.950342]]], [[[11.282813, 54.417969], [11.129297, 54.416016], [11.070703, 54.456006], [11.011719, 54.466162], [11.043457, 54.515479], [11.084961, 54.533398], [11.233594, 54.50127], [11.280273, 54.438379], [11.282813, 54.417969]]], [[[8.307715, 54.786963], [8.284668, 54.76709], [8.295703, 54.908301], [8.405176, 55.05874], [8.451465, 55.055371], [8.404102, 55.014746], [8.39043, 54.986279], [8.371191, 54.929395], [8.379883, 54.899854], [8.62959, 54.891748], [8.600586, 54.865381], [8.347363, 54.847607], [8.307715, 54.786963]]], [[[8.587891, 54.712695], [8.548926, 54.688184], [8.453809, 54.691064], [8.400391, 54.714111], [8.417676, 54.738672], [8.468164, 54.757422], [8.509961, 54.760303], [8.573438, 54.74873], [8.587891, 54.712695]]]]}}, {"type": "Feature", "properties": {"ADM0_A3": "FRA", "NAME": "France"}, "geometry": {"type": "MultiPolygon", "coordinates": [[[[9.480371, 42.80542], [9.454199, 42.658594], [9.473242, 42.615576], [9.509375, 42.585596], [9.526172, 42.552637], [9.556445, 42.160937], [9.550684, 42.129736], [9.428418, 41.972412], [9.400879, 41.926221], [9.394824, 41.731201], [9.374219, 41.678809], [9.330859, 41.627148], [9.253418, 41.460059], [9.186133, 41.384912], [9.003027, 41.476562], [8.89502, 41.516162], [8.84209, 41.558887], [8.80752, 41.588379], [8.829785, 41.627686], [8.879004, 41.668555], [8.886816, 41.700684], [8.770996, 41.737109], [8.717969, 41.761426], [8.718652, 41.804004], [8.758691, 41.87041], [8.74043, 41.925146], [8.673633, 41.922363], [8.621875, 41.930713], [8.615137, 41.959131], [8.653418, 41.995557], [8.702539, 42.043115], [8.700977, 42.095605], [8.641602, 42.118213], [8.587793, 42.16084], [8.566211, 42.218799], [8.60791, 42.258447], [8.675488, 42.284033], [8.625879, 42.343408], [8.592383, 42.344727], [8.565625, 42.357715], [8.5875, 42.385303], [8.640039, 42.426562], [8.713086, 42.549756], [8.814844, 42.60791], [8.994922, 42.645312], [9.043652, 42.66167], [9.088379, 42.70498], [9.137891, 42.73291], [9.198047, 42.729199], [9.253516, 42.712451], [9.287695, 42.694629], [9.313379, 42.713184], [9.338379, 42.766895], [9.323047, 42.814062], [9.330957, 42.943799], [9.363184, 43.017383], [9.415234, 43.021484], [9.463281, 42.981006], [9.46084, 42.945215], [9.478613, 42.860498], [9.480371, 42.80542]]], [[[7.615625, 47.592725], [7.494922, 47.547363], [7.467383, 47.507666], [7.42002, 47.455176], [7.343164, 47.433105], [7.265723, 47.425781], [7.203125, 47.432715], [7.16748, 47.453711], [7.169238, 47.473242], [7.136035, 47.489844], [7.053418, 47.489355], [6.968359, 47.453223], [6.900391, 47.394238], [6.921484, 47.36123], [6.984082, 47.352539], [7.000586, 47.339453], [7.000586, 47.32251], [6.978516, 47.302051], [6.952051, 47.267187], [6.820703, 47.163184], [6.688086, 47.058252], [6.666895, 47.026514], [6.624805, 47.004346], [6.45625, 46.94834], [6.438574, 46.925879], [6.429004, 46.832275], [6.410156, 46.75542], [6.285156, 46.683057], [6.160742, 46.611035], [6.129688, 46.566992], [6.107031, 46.516064], [6.067969, 46.458545], [6.060254, 46.428174], [6.123242, 46.378613], [6.115918, 46.337646], [6.095898, 46.279395], [6.036133, 46.238086], [5.97002, 46.214697], [5.971484, 46.151221], [6.006641, 46.142334], [6.086621, 46.147021], [6.199414, 46.193066], [6.272949, 46.252246], [6.22959, 46.308447], [6.224219, 46.319434], [6.234668, 46.332617], [6.321875, 46.393701], [6.428906, 46.430518], [6.578223, 46.437354], [6.758105, 46.415771], [6.776074, 46.406641], [6.767383, 46.369189], [6.78418, 46.313965], [6.816797, 46.275195], [6.77207, 46.165137], [6.805664, 46.130664], [6.858008, 46.089404], [6.897266, 46.051758], [6.953711, 46.017139], [7.003906, 45.958838], [7.021094, 45.925781], [6.94082, 45.868359], [6.804492, 45.814551], [6.78916, 45.780078], [6.790918, 45.740869], [6.80625, 45.71001], [6.881445, 45.670361], [6.962402, 45.580566], [7.013672, 45.500488], [7.126074, 45.423682], [7.153418, 45.400928], [7.146387, 45.381738], [7.116797, 45.349023], [7.07832, 45.239941], [7.032422, 45.222607], [6.98125, 45.215576], [6.842285, 45.135645], [6.780371, 45.145312], [6.692285, 45.144287], [6.627734, 45.117969], [6.634766, 45.068164], [6.691406, 45.022607], [6.724707, 44.972998], [6.738184, 44.921387], [6.801074, 44.883154], [6.889355, 44.860303], [6.939844, 44.85874], [6.972852, 44.84502], [6.992676, 44.827295], [7.030664, 44.716699], [7.00791, 44.688965], [6.960352, 44.677148], [6.931934, 44.631641], [6.875195, 44.564551], [6.842969, 44.510693], [6.878613, 44.463281], [6.893848, 44.428174], [6.874805, 44.392041], [6.900195, 44.335742], [6.967285, 44.280029], [7.149414, 44.201709], [7.318555, 44.137988], [7.370898, 44.127393], [7.599414, 44.168359], [7.637207, 44.164844], [7.665039, 44.116016], [7.677148, 44.083154], [7.651465, 44.033643], [7.589648, 43.96543], [7.522656, 43.911084], [7.482031, 43.864893], [7.490527, 43.822949], [7.493164, 43.767139], [7.438672, 43.750439], [7.436914, 43.761475], [7.414453, 43.770898], [7.39502, 43.765332], [7.380078, 43.753223], [7.377734, 43.731738], [7.261523, 43.696094], [7.181445, 43.659131], [6.864746, 43.43833], [6.716602, 43.373584], [6.687402, 43.33457], [6.657227, 43.26167], [6.570215, 43.199072], [6.494043, 43.169287], [6.305371, 43.138721], [6.115918, 43.072363], [6.030566, 43.100977], [5.809473, 43.0979], [5.671582, 43.177832], [5.406543, 43.228516], [5.320215, 43.344922], [5.199512, 43.35249], [5.12041, 43.348975], [5.073145, 43.366602], [5.06084, 43.406299], [5.059766, 43.444531], [4.975977, 43.426953], [4.911914, 43.426953], [4.87373, 43.411621], [4.843555, 43.393945], [4.80791, 43.405225], [4.787207, 43.401416], [4.789062, 43.378906], [4.712109, 43.373291], [4.628711, 43.387109], [4.409766, 43.447217], [4.376172, 43.456396], [4.224219, 43.479639], [4.162793, 43.503662], [4.113086, 43.563037], [4.075098, 43.581836], [4.052637, 43.593066], [3.91084, 43.563086], [3.861621, 43.516357], [3.784766, 43.461621], [3.258887, 43.193213], [3.162891, 43.080762], [3.051758, 42.915137], [3.043066, 42.837891], [3.090918, 42.590869], [3.197852, 42.461182], [3.211426, 42.431152], [3.152148, 42.431006], [3.052637, 42.447217], [2.97002, 42.467236], [2.891406, 42.456055], [2.815625, 42.429248], [2.749414, 42.413037], [2.701855, 42.408496], [2.67002, 42.393018], [2.654785, 42.362109], [2.65166, 42.340479], [2.567969, 42.345801], [2.374414, 42.390283], [2.200391, 42.420947], [2.09834, 42.386084], [2.032715, 42.353516], [1.986523, 42.358496], [1.951465, 42.392773], [1.92793, 42.426318], [1.859766, 42.45708], [1.706055, 42.50332], [1.713965, 42.525635], [1.740234, 42.556738], [1.739453, 42.575928], [1.709863, 42.604443], [1.568164, 42.63501], [1.501367, 42.642725], [1.458887, 42.62168], [1.42832, 42.595898], [1.349414, 42.690674], [1.293262, 42.709961], [1.208301, 42.713135], [1.111133, 42.742041], [1.010059, 42.778955], [0.764453, 42.838037], [0.696875, 42.845117], [0.669824, 42.835742], [0.651758, 42.800439], [0.641992, 42.700635], [0.631641, 42.6896], [0.517676, 42.686279], [0.377246, 42.700146], [0.312891, 42.693262], [0.255469, 42.69292], [0.201367, 42.719336], [-0.041162, 42.689111], [-0.081494, 42.703857], [-0.140039, 42.748926], [-0.205322, 42.785303], [-0.256055, 42.803955], [-0.299316, 42.825342], [-0.338574, 42.828809], [-0.398438, 42.808105], [-0.481152, 42.799316], [-0.549805, 42.802002], [-0.586426, 42.798975], [-0.740186, 42.909521], [-0.762646, 42.939795], [-0.839209, 42.948193], [-0.933838, 42.949512], [-1.175439, 43.021143], [-1.285449, 43.059619], [-1.301562, 43.082471], [-1.300049, 43.100977], [-1.318848, 43.096973], [-1.352734, 43.064258], [-1.370508, 43.037598], [-1.394043, 43.032617], [-1.42876, 43.036768], [-1.46084, 43.051758], [-1.480469, 43.071143], [-1.459424, 43.10498], [-1.422607, 43.149121], [-1.407324, 43.197119], [-1.410693, 43.240088], [-1.471729, 43.267676], [-1.561475, 43.279199], [-1.627148, 43.282471], [-1.712842, 43.307031], [-1.753271, 43.324707], [-1.792725, 43.372559], [-1.794043, 43.407324], [-1.631445, 43.438037], [-1.484863, 43.56377], [-1.345996, 44.020215], [-1.245508, 44.559863], [-1.170801, 44.661816], [-1.076953, 44.689844], [-1.152881, 44.764014], [-1.200391, 44.726465], [-1.220312, 44.686621], [-1.245215, 44.666699], [-1.189062, 45.161475], [-1.149072, 45.342627], [-1.081006, 45.532422], [-0.941748, 45.45708], [-0.826318, 45.380664], [-0.76665, 45.314355], [-0.691113, 45.093457], [-0.633984, 45.047119], [-0.548486, 45.000586], [-0.582275, 45.051367], [-0.641113, 45.090186], [-0.733105, 45.384619], [-0.790771, 45.468018], [-0.880664, 45.538184], [-1.169971, 45.685937], [-1.195996, 45.714453], [-1.209961, 45.770898], [-1.114355, 45.768506], [-1.031738, 45.741064], [-1.041504, 45.772656], [-1.066016, 45.805664], [-1.104395, 45.925342], [-1.136377, 46.204834], [-1.132031, 46.252686], [-1.146289, 46.311377], [-1.238818, 46.324512], [-1.312793, 46.326904], [-1.39248, 46.350098], [-1.786523, 46.514844], [-1.921436, 46.684814], [-2.059375, 46.810303], [-2.09248, 46.865039], [-2.090283, 46.920508], [-2.018896, 47.037646], [-2.081934, 47.111621], [-2.143555, 47.126318], [-2.19707, 47.162939], [-2.148584, 47.223926], [-2.108301, 47.262939], [-2.027588, 47.273584], [-1.921729, 47.260645], [-1.821289, 47.225342], [-1.742529, 47.215967], [-1.975391, 47.310693], [-2.353027, 47.27876], [-2.434424, 47.290967], [-2.503125, 47.312061], [-2.530029, 47.381592], [-2.476318, 47.412939], [-2.427686, 47.470898], [-2.482715, 47.511621], [-2.554053, 47.527051], [-2.665918, 47.526172], [-2.770312, 47.513867], [-2.796777, 47.537256], [-2.733105, 47.601807], [-2.787207, 47.625537], [-2.859375, 47.614453], [-2.964062, 47.601074], [-3.064209, 47.621338], [-3.158838, 47.694678], [-3.221582, 47.694141], [-3.264697, 47.685107], [-3.328613, 47.71333], [-3.395898, 47.72041], [-3.443945, 47.711035], [-3.507812, 47.753125], [-3.900928, 47.837549], [-4.070703, 47.847852], [-4.226416, 47.809619], [-4.312109, 47.8229], [-4.375098, 47.877441], [-4.427979, 47.968945], [-4.678809, 48.039502], [-4.629199, 48.085791], [-4.512402, 48.096729], [-4.377832, 48.128809], [-4.329443, 48.169971], [-4.434619, 48.217969], [-4.512207, 48.229736], [-4.544336, 48.246973], [-4.577148, 48.290039], [-4.530664, 48.309717], [-4.4979, 48.299268], [-4.40332, 48.293066], [-4.241406, 48.303662], [-4.301758, 48.34707], [-4.364404, 48.356738], [-4.393164, 48.367627], [-4.524805, 48.372314], [-4.584717, 48.35752], [-4.719385, 48.363135], [-4.748535, 48.41001], [-4.7625, 48.450244], [-4.720752, 48.539893], [-4.531201, 48.619971], [-4.058887, 48.70752], [-3.855664, 48.694727], [-3.714795, 48.710498], [-3.545996, 48.765674], [-3.471484, 48.812939], [-3.231445, 48.84082], [-3.003223, 48.790674], [-2.792871, 48.601074], [-2.692334, 48.536816], [-2.446191, 48.648291], [-2.079443, 48.64502], [-2.003711, 48.58208], [-1.973145, 48.635107], [-1.905713, 48.697119], [-1.851953, 48.668848], [-1.824707, 48.630518], [-1.437646, 48.641406], [-1.376465, 48.652588], [-1.480469, 48.697607], [-1.565479, 48.805518], [-1.583105, 49.202393], [-1.690332, 49.313184], [-1.813428, 49.490137], [-1.870068, 49.595117], [-1.875391, 49.631396], [-1.856445, 49.683789], [-1.705127, 49.680957], [-1.588232, 49.667676], [-1.365723, 49.707275], [-1.258643, 49.680176], [-1.264941, 49.598242], [-1.232275, 49.494873], [-1.194971, 49.444824], [-1.138525, 49.387891], [-0.959131, 49.393164], [-0.765527, 49.359717], [-0.520898, 49.354541], [-0.163477, 49.296777], [-0.011182, 49.330225], [0.136133, 49.401514], [0.416895, 49.448389], [0.439258, 49.473193], [0.277637, 49.463281], [0.129395, 49.508447], [0.109375, 49.55752], [0.126563, 49.601562], [0.186719, 49.703027], [0.616211, 49.862939], [0.924121, 49.910205], [1.245508, 49.998242], [1.407227, 50.088525], [1.514063, 50.205078], [1.548438, 50.230713], [1.592773, 50.252197], [1.551563, 50.293945], [1.579492, 50.739258], [1.60957, 50.819482], [1.672266, 50.88501], [1.767676, 50.935693], [1.9125, 50.990625], [2.445703, 51.066504], [2.524902, 51.097119], [2.536035, 51.049512], [2.574805, 50.988574], [2.601465, 50.955273], [2.579297, 50.911768], [2.596777, 50.875928], [2.669141, 50.811426], [2.759375, 50.750635], [2.839746, 50.711768], [2.862402, 50.716016], [2.921973, 50.727051], [3.022852, 50.766895], [3.106836, 50.779443], [3.154883, 50.748926], [3.182031, 50.731689], [3.234961, 50.662939], [3.249805, 50.591162], [3.27334, 50.531543], [3.316211, 50.507373], [3.476953, 50.499463], [3.59541, 50.477344], [3.626758, 50.457324], [3.667285, 50.324805], [3.689355, 50.306055], [3.718848, 50.32168], [3.748047, 50.343506], [3.788574, 50.346973], [3.858105, 50.338574], [3.949707, 50.335938], [4.044141, 50.321338], [4.174609, 50.246484], [4.169629, 50.221777], [4.144141, 50.178418], [4.135254, 50.143799], [4.157715, 50.129883], [4.192188, 50.094141], [4.183887, 50.052832], [4.150293, 50.023877], [4.136816, 50], [4.137012, 49.984473], [4.149316, 49.971582], [4.176074, 49.960254], [4.36875, 49.944971], [4.54502, 49.960254], [4.656152, 50.002441], [4.675098, 50.046875], [4.706641, 50.09707], [4.772852, 50.139062], [4.818652, 50.153174], [4.860547, 50.135889], [4.790039, 49.95957], [4.841504, 49.914502], [4.849121, 49.847119], [4.867578, 49.788135], [4.930566, 49.789258], [5.006934, 49.778369], [5.061035, 49.756543], [5.124121, 49.721484], [5.215039, 49.689258], [5.278809, 49.67793], [5.301953, 49.650977], [5.353516, 49.619824], [5.434668, 49.554492], [5.507324, 49.510889], [5.542383, 49.511035], [5.610059, 49.528223], [5.710449, 49.539209], [5.789746, 49.538281], [5.823438, 49.505078], [5.901367, 49.489746], [5.928906, 49.477539], [5.959473, 49.454639], [6.011426, 49.445459], [6.074121, 49.454639], [6.119922, 49.485205], [6.181055, 49.498926], [6.242188, 49.494336], [6.277344, 49.477539], [6.344336, 49.452734], [6.382227, 49.458154], [6.458105, 49.442871], [6.534277, 49.394678], [6.566309, 49.346191], [6.574707, 49.319678], [6.607617, 49.290869], [6.735449, 49.160596], [6.77627, 49.15415], [6.820703, 49.173926], [6.849512, 49.201953], [6.891211, 49.20752], [6.958301, 49.194629], [7.001465, 49.179883], [7.022168, 49.123437], [7.036719, 49.112695], [7.065723, 49.124854], [7.117383, 49.127539], [7.199902, 49.113623], [7.313379, 49.129541], [7.404199, 49.153076], [7.450586, 49.152197], [7.525488, 49.086377], [7.610938, 49.061768], [7.799219, 49.041895], [8.00127, 49.010937], [8.080664, 48.985889], [8.134863, 48.973584], [8.140332, 48.886426], [8.124023, 48.873291], [7.922754, 48.698535], [7.837988, 48.636035], [7.794824, 48.546826], [7.765137, 48.41001], [7.705664, 48.280029], [7.616602, 48.156787], [7.58418, 48.064307], [7.608496, 48.002588], [7.593262, 47.905664], [7.538574, 47.773633], [7.529395, 47.673877], [7.56543, 47.606543], [7.615625, 47.592725]]], [[[-1.17832, 45.904053], [-1.213574, 45.816602], [-1.280273, 45.897119], [-1.368701, 45.967676], [-1.388867, 46.032959], [-1.388672, 46.050391], [-1.285059, 46.002686], [-1.17832, 45.904053]]], [[[45.180273, -12.976758], [45.117578, -12.984961], [45.087695, -12.958496], [45.069434, -12.895605], [45.088281, -12.835059], [45.093555, -12.786133], [45.042578, -12.70127], [45.092383, -12.653027], [45.134766, -12.70918], [45.158789, -12.712988], [45.223145, -12.752148], [45.204297, -12.824316], [45.208594, -12.847949], [45.179395, -12.920215], [45.180273, -12.976758]]], [[[55.797363, -21.339355], [55.656152, -21.369043], [55.557617, -21.358301], [55.362695, -21.273633], [55.310352, -21.217383], [55.232813, -21.058398], [55.25, -21.002441], [55.311328, -20.904102], [55.450488, -20.865137], [55.596484, -20.87959], [55.661914, -20.90625], [55.73916, -21.021484], [55.839063, -21.138574], [55.822461, -21.277832], [55.797363, -21.339355]]], [[[-60.82627, 14.494482], [-60.836621, 14.437402], [-60.862109, 14.42627], [-60.899414, 14.473779], [-61.063721, 14.46709], [-61.088867, 14.50957], [-61.090332, 14.529687], [-61.011328, 14.601904], [-61.104297, 14.62124], [-61.141113, 14.652393], [-61.219727, 14.804395], [-61.21333, 14.848584], [-61.180811, 14.871924], [-61.127393, 14.875293], [-61.0271, 14.826172], [-60.952539, 14.75625], [-60.927148, 14.755176], [-60.918652, 14.735352], [-60.933691, 14.686182], [-60.88916, 14.644531], [-60.869971, 14.613721], [-60.82627, 14.494482]]], [[[-61.327148, 16.23042], [-61.444824, 16.219287], [-61.522168, 16.228027], [-61.53999, 16.299609], [-61.500586, 16.360205], [-61.528906, 16.433789], [-61.510645, 16.477686], [-61.471191, 16.506641], [-61.406445, 16.468311], [-61.396143, 16.413428], [-61.355469, 16.363184], [-61.172607, 16.256104], [-61.327148, 16.23042]]], [[[-61.589551, 16.006934], [-61.670459, 15.962061], [-61.710254, 15.975928], [-61.759424, 16.062061], [-61.794092, 16.300977], [-61.767139, 16.340479], [-61.748047, 16.355273], [-61.641504, 16.325977], [-61.597021, 16.292187], [-61.552344, 16.270898], [-61.575049, 16.227148], [-61.563867, 16.047754], [-61.589551, 16.006934]]], [[[-61.230469, 15.889941], [-61.28623, 15.886035], [-61.310742, 15.894678], [-61.318408, 15.954883], [-61.275293, 15.99624], [-61.25, 16.006299], [-61.212354, 15.959912], [-61.203418, 15.92124], [-61.230469, 15.889941]]], [[[-54.61626, 2.326758], [-54.604736, 2.335791], [-54.568408, 2.342578], [-54.535937, 2.343311], [-54.485547, 2.416113], [-54.402002, 2.461523], [-54.256738, 2.713721], [-54.195508, 2.817871], [-54.188086, 2.874854], [-54.170703, 2.993604], [-54.203125, 3.138184], [-54.188037, 3.17876], [-54.063184, 3.35332], [-54.00957, 3.448535], [-54.005957, 3.530518], [-53.990479, 3.589551], [-54.005908, 3.62041], [-54.034229, 3.629395], [-54.081982, 3.705957], [-54.112793, 3.769434], [-54.197461, 3.834424], [-54.255518, 3.901074], [-54.350732, 4.054102], [-54.342139, 4.140039], [-54.369141, 4.170947], [-54.398389, 4.20249], [-54.39624, 4.241406], [-54.416016, 4.337646], [-54.440674, 4.428027], [-54.449609, 4.48501], [-54.426074, 4.583008], [-54.440234, 4.691992], [-54.471143, 4.749316], [-54.479687, 4.836523], [-54.47334, 4.914697], [-54.446875, 4.958789], [-54.452197, 5.013477], [-54.331641, 5.187402], [-54.240186, 5.288232], [-54.155957, 5.358984], [-54.085303, 5.411816], [-53.9896, 5.676025], [-53.919922, 5.768994], [-53.847168, 5.782227], [-53.454443, 5.563477], [-53.270361, 5.543262], [-52.899316, 5.425049], [-52.76499, 5.273486], [-52.453955, 5.021338], [-52.290527, 4.942187], [-52.288916, 4.876123], [-52.324609, 4.770898], [-52.219971, 4.862793], [-52.058105, 4.717383], [-52.012305, 4.645996], [-51.961914, 4.514404], [-51.979346, 4.429883], [-52.001709, 4.38623], [-52.00293, 4.352295], [-51.954785, 4.399072], [-51.927686, 4.436133], [-51.91958, 4.524316], [-51.880273, 4.63374], [-51.827539, 4.635693], [-51.785645, 4.570508], [-51.698633, 4.286816], [-51.66582, 4.228809], [-51.653271, 4.13877], [-51.658105, 4.098486], [-51.652539, 4.061279], [-51.683447, 4.039697], [-51.76709, 3.992676], [-51.805273, 3.929932], [-51.82749, 3.86958], [-51.879492, 3.828564], [-51.928906, 3.776953], [-51.944336, 3.735107], [-51.990625, 3.702002], [-51.999512, 3.646875], [-52.116113, 3.452295], [-52.162598, 3.364697], [-52.229443, 3.27168], [-52.27124, 3.237109], [-52.327881, 3.181738], [-52.356641, 3.117725], [-52.356641, 3.051562], [-52.396387, 2.972217], [-52.418408, 2.903857], [-52.455859, 2.86416], [-52.554688, 2.647656], [-52.559473, 2.573145], [-52.583008, 2.528906], [-52.653174, 2.425732], [-52.700635, 2.363672], [-52.783398, 2.317187], [-52.87041, 2.26665], [-52.903467, 2.211523], [-52.964844, 2.183545], [-53.009717, 2.181738], [-53.082275, 2.201709], [-53.180078, 2.211328], [-53.229785, 2.204883], [-53.252197, 2.232275], [-53.285498, 2.295215], [-53.334424, 2.339746], [-53.366016, 2.324219], [-53.431836, 2.279443], [-53.508984, 2.253125], [-53.563965, 2.261914], [-53.683691, 2.29292], [-53.734717, 2.308545], [-53.750146, 2.33501], [-53.767773, 2.354834], [-53.794238, 2.345996], [-53.829541, 2.312939], [-53.876611, 2.278271], [-53.946436, 2.232568], [-54.089746, 2.150488], [-54.130078, 2.121045], [-54.167383, 2.137061], [-54.227979, 2.15332], [-54.293066, 2.154248], [-54.433105, 2.20752], [-54.515088, 2.245459], [-54.550488, 2.293066], [-54.591943, 2.31377], [-54.61626, 2.326758]]]]}}, {"type": "Feature", "properties": {"ADM0_A3": "BEL", "NAME": "Belgium"}, "geometry": {"type": "Polygon", "coordinates": [[[4.226172, 51.386475], [4.304492, 51.361523], [4.37373, 51.356006], [4.404004, 51.36709], [4.384766, 51.427588], [4.440918, 51.459814], [4.503418, 51.474707], [4.531641, 51.448584], [4.58877, 51.421924], [4.633984, 51.421729], [4.755664, 51.491113], [4.78418, 51.477393], [4.810547, 51.452734], [4.816016, 51.432812], [4.820703, 51.412061], [4.848047, 51.403271], [4.943945, 51.407764], [4.992578, 51.445361], [5.030957, 51.469092], [5.059473, 51.453125], [5.073438, 51.406836], [5.099902, 51.346484], [5.21416, 51.278955], [5.31084, 51.259717], [5.429785, 51.272998], [5.476855, 51.285059], [5.508789, 51.275], [5.54043, 51.239307], [5.608789, 51.198437], [5.752344, 51.169482], [5.796484, 51.153076], [5.827148, 51.125635], [5.818262, 51.086426], [5.749805, 50.98877], [5.74082, 50.959912], [5.75, 50.950244], [5.736621, 50.932129], [5.647559, 50.86665], [5.639453, 50.843604], [5.669141, 50.805957], [5.693555, 50.774756], [5.693652, 50.774658], [5.74707, 50.75957], [5.797363, 50.754541], [5.892461, 50.752557], [5.993945, 50.750439], [6.005957, 50.732227], [6.119434, 50.679248], [6.154492, 50.637256], [6.235938, 50.59668], [6.168457, 50.545361], [6.178711, 50.52251], [6.203027, 50.499121], [6.294922, 50.485498], [6.340918, 50.451758], [6.343652, 50.400244], [6.364453, 50.316162], [6.175098, 50.232666], [6.121289, 50.139355], [6.116504, 50.120996], [6.110059, 50.123779], [6.089063, 50.15459], [6.054785, 50.154297], [5.97627, 50.167187], [5.866895, 50.082812], [5.817383, 50.012695], [5.788086, 49.96123], [5.744043, 49.919629], [5.735254, 49.875635], [5.74082, 49.857178], [5.725781, 49.83335], [5.725, 49.808301], [5.787988, 49.758887], [5.803711, 49.732178], [5.880371, 49.644775], [5.856543, 49.612842], [5.837598, 49.57832], [5.81543, 49.553809], [5.789746, 49.538281], [5.710449, 49.539209], [5.610059, 49.528223], [5.542383, 49.511035], [5.507324, 49.510889], [5.434668, 49.554492], [5.353516, 49.619824], [5.301953, 49.650977], [5.278809, 49.67793], [5.215039, 49.689258], [5.124121, 49.721484], [5.061035, 49.756543], [5.006934, 49.778369], [4.930566, 49.789258], [4.867578, 49.788135], [4.849121, 49.847119], [4.841504, 49.914502], [4.790039, 49.95957], [4.860547, 50.135889], [4.818652, 50.153174], [4.772852, 50.139062], [4.706641, 50.09707], [4.675098, 50.046875], [4.656152, 50.002441], [4.54502, 49.960254], [4.36875, 49.944971], [4.176074, 49.960254], [4.149316, 49.971582], [4.137012, 49.984473], [4.136816, 50], [4.150293, 50.023877], [4.183887, 50.052832], [4.192188, 50.094141], [4.157715, 50.129883], [4.135254, 50.143799], [4.144141, 50.178418], [4.169629, 50.221777], [4.174609, 50.246484], [4.044141, 50.321338], [3.949707, 50.335938], [3.858105, 50.338574], [3.788574, 50.346973], [3.748047, 50.343506], [3.718848, 50.32168], [3.689355, 50.306055], [3.667285, 50.324805], [3.626758, 50.457324], [3.59541, 50.477344], [3.476953, 50.499463], [3.316211, 50.507373], [3.27334, 50.531543], [3.249805, 50.591162], [3.234961, 50.662939], [3.182031, 50.731689], [3.154883, 50.748926], [3.106836, 50.779443], [3.022852, 50.766895], [2.921973, 50.727051], [2.862402, 50.716016], [2.839746, 50.711768], [2.759375, 50.750635], [2.669141, 50.811426], [2.596777, 50.875928], [2.579297, 50.911768], [2.601465, 50.955273], [2.574805, 50.988574], [2.536035, 51.049512], [2.524902, 51.097119], [2.960156, 51.26543], [3.225195, 51.351611], [3.350098, 51.377686], [3.380078, 51.291113], [3.402832, 51.263623], [3.43252, 51.245752], [3.471973, 51.242236], [3.51709, 51.263623], [3.580273, 51.286182], [3.681836, 51.275684], [3.755664, 51.254834], [3.781934, 51.233203], [3.830762, 51.212598], [3.902051, 51.207666], [4.040039, 51.24707], [4.172559, 51.30708], [4.211426, 51.34873], [4.226172, 51.386475]]]}}]}